[{"id":1,"street":"6 Schurz Terrace","city":"Elmira","state":"New York","zip":"14905"},
{"id":2,"street":"89770 Browning Parkway","city":"Spring","state":"Texas","zip":"77386"},
{"id":3,"street":"347 Village Circle","city":"Shawnee Mission","state":"Kansas","zip":"66225"},
{"id":4,"street":"07223 Golden Leaf Street","city":"Washington","state":"District of Columbia","zip":"20220"},
{"id":5,"street":"236 Novick Alley","city":"Waco","state":"Texas","zip":"76711"},
{"id":6,"street":"81 Prentice Street","city":"Arlington","state":"Texas","zip":"76004"},
{"id":7,"street":"05565 Northridge Junction","city":"Las Vegas","state":"Nevada","zip":"89120"},
{"id":8,"street":"09 Myrtle Pass","city":"Nashville","state":"Tennessee","zip":"37210"},
{"id":9,"street":"13 Derek Junction","city":"Newark","state":"Delaware","zip":"19714"},
{"id":10,"street":"10 Loomis Avenue","city":"Los Angeles","state":"California","zip":"90015"},
{"id":11,"street":"91 Oriole Terrace","city":"Lafayette","state":"Indiana","zip":"47905"},
{"id":12,"street":"0 Shopko Center","city":"Peoria","state":"Illinois","zip":"61614"},
{"id":13,"street":"83 Twin Pines Avenue","city":"Tulsa","state":"Oklahoma","zip":"74149"},
{"id":14,"street":"086 Macpherson Center","city":"Las Vegas","state":"Nevada","zip":"89145"},
{"id":15,"street":"733 Nobel Lane","city":"Salt Lake City","state":"Utah","zip":"84152"},
{"id":16,"street":"2 Susan Hill","city":"Alexandria","state":"Virginia","zip":"22333"},
{"id":17,"street":"886 Mcbride Way","city":"Oklahoma City","state":"Oklahoma","zip":"73135"},
{"id":18,"street":"2523 Cambridge Parkway","city":"Appleton","state":"Wisconsin","zip":"54915"},
{"id":19,"street":"081 Haas Center","city":"El Paso","state":"Texas","zip":"88530"},
{"id":20,"street":"4 Bunting Way","city":"Anaheim","state":"California","zip":"92812"},
{"id":21,"street":"93677 Roth Terrace","city":"Sacramento","state":"California","zip":"95813"},
{"id":22,"street":"00645 Hanover Place","city":"Milwaukee","state":"Wisconsin","zip":"53234"},
{"id":23,"street":"8483 Anderson Avenue","city":"Virginia Beach","state":"Virginia","zip":"23464"},
{"id":24,"street":"0 Thompson Way","city":"Birmingham","state":"Alabama","zip":"35236"},
{"id":25,"street":"516 Westridge Terrace","city":"Anniston","state":"Alabama","zip":"36205"},
{"id":26,"street":"49424 Harbort Lane","city":"Washington","state":"District of Columbia","zip":"20238"},
{"id":27,"street":"72976 Goodland Drive","city":"Minneapolis","state":"Minnesota","zip":"55441"},
{"id":28,"street":"41 Center Crossing","city":"Merrifield","state":"Virginia","zip":"22119"},
{"id":29,"street":"5 Fairview Hill","city":"Lancaster","state":"California","zip":"93584"},
{"id":30,"street":"01 Monica Circle","city":"Portsmouth","state":"New Hampshire","zip":"03804"},
{"id":31,"street":"784 Ilene Street","city":"Minneapolis","state":"Minnesota","zip":"55428"},
{"id":32,"street":"8 Lake View Crossing","city":"New Orleans","state":"Louisiana","zip":"70154"},
{"id":33,"street":"024 Cordelia Avenue","city":"Mobile","state":"Alabama","zip":"36622"},
{"id":34,"street":"764 Veith Hill","city":"Fresno","state":"California","zip":"93740"},
{"id":35,"street":"69 Bayside Point","city":"Boston","state":"Massachusetts","zip":"02208"},
{"id":36,"street":"6 Lindbergh Way","city":"Pittsburgh","state":"Pennsylvania","zip":"15279"},
{"id":37,"street":"0573 Nevada Parkway","city":"New York City","state":"New York","zip":"10115"},
{"id":38,"street":"8494 Heffernan Center","city":"Portland","state":"Oregon","zip":"97221"},
{"id":39,"street":"01 Meadow Vale Point","city":"San Francisco","state":"California","zip":"94154"},
{"id":40,"street":"67 Vernon Alley","city":"Boise","state":"Idaho","zip":"83722"},
{"id":41,"street":"50656 Southridge Way","city":"Saint Louis","state":"Missouri","zip":"63143"},
{"id":42,"street":"6773 Swallow Junction","city":"Bronx","state":"New York","zip":"10459"},
{"id":43,"street":"2392 Dottie Pass","city":"Los Angeles","state":"California","zip":"90087"},
{"id":44,"street":"66 Kedzie Plaza","city":"Kalamazoo","state":"Michigan","zip":"49048"},
{"id":45,"street":"3630 Atwood Terrace","city":"El Paso","state":"Texas","zip":"88579"},
{"id":46,"street":"58 Toban Circle","city":"Phoenix","state":"Arizona","zip":"85083"},
{"id":47,"street":"3559 Bartillon Lane","city":"Aurora","state":"Colorado","zip":"80045"},
{"id":48,"street":"2319 John Wall Parkway","city":"San Diego","state":"California","zip":"92105"},
{"id":49,"street":"1781 Jenifer Park","city":"Des Moines","state":"Iowa","zip":"50320"},
{"id":50,"street":"8544 Lien Plaza","city":"Akron","state":"Ohio","zip":"44321"},
{"id":51,"street":"0 1st Point","city":"Birmingham","state":"Alabama","zip":"35215"},
{"id":52,"street":"632 Village Trail","city":"San Diego","state":"California","zip":"92137"},
{"id":53,"street":"508 Crescent Oaks Hill","city":"Young America","state":"Minnesota","zip":"55564"},
{"id":54,"street":"9 Sherman Hill","city":"San Diego","state":"California","zip":"92191"},
{"id":55,"street":"97 Banding Pass","city":"Appleton","state":"Wisconsin","zip":"54915"},
{"id":56,"street":"35 American Circle","city":"Philadelphia","state":"Pennsylvania","zip":"19191"},
{"id":57,"street":"5141 Lunder Court","city":"Stockton","state":"California","zip":"95205"},
{"id":58,"street":"474 Delaware Point","city":"Newark","state":"Delaware","zip":"19725"},
{"id":59,"street":"940 Michigan Lane","city":"Dallas","state":"Texas","zip":"75310"},
{"id":60,"street":"49 Kinsman Plaza","city":"Ocala","state":"Florida","zip":"34479"},
{"id":61,"street":"279 Ronald Regan Hill","city":"Dallas","state":"Texas","zip":"75246"},
{"id":62,"street":"1 Crescent Oaks Drive","city":"Brooklyn","state":"New York","zip":"11241"},
{"id":63,"street":"09148 Vera Street","city":"Cleveland","state":"Ohio","zip":"44177"},
{"id":64,"street":"56814 Glacier Hill Crossing","city":"Oklahoma City","state":"Oklahoma","zip":"73142"},
{"id":65,"street":"96 Corscot Crossing","city":"Houston","state":"Texas","zip":"77260"},
{"id":66,"street":"67223 Pawling Crossing","city":"Dearborn","state":"Michigan","zip":"48126"},
{"id":67,"street":"777 Northview Drive","city":"Stockton","state":"California","zip":"95210"},
{"id":68,"street":"4414 6th Court","city":"Harrisburg","state":"Pennsylvania","zip":"17121"},
{"id":69,"street":"780 Pawling Trail","city":"Milwaukee","state":"Wisconsin","zip":"53220"},
{"id":70,"street":"63 Sheridan Alley","city":"Boston","state":"Massachusetts","zip":"02104"},
{"id":71,"street":"824 Emmet Street","city":"Laredo","state":"Texas","zip":"78044"},
{"id":72,"street":"8 Independence Parkway","city":"San Antonio","state":"Texas","zip":"78235"},
{"id":73,"street":"533 Bay Trail","city":"El Paso","state":"Texas","zip":"88541"},
{"id":74,"street":"12061 Bunting Court","city":"Independence","state":"Missouri","zip":"64054"},
{"id":75,"street":"455 Service Terrace","city":"Topeka","state":"Kansas","zip":"66617"},
{"id":76,"street":"6 Leroy Road","city":"Ashburn","state":"Virginia","zip":"22093"},
{"id":77,"street":"81244 Beilfuss Court","city":"Syracuse","state":"New York","zip":"13217"},
{"id":78,"street":"139 Little Fleur Plaza","city":"Texarkana","state":"Texas","zip":"75507"},
{"id":79,"street":"3 Parkside Parkway","city":"New Orleans","state":"Louisiana","zip":"70165"},
{"id":80,"street":"45930 Bayside Hill","city":"Santa Fe","state":"New Mexico","zip":"87592"},
{"id":81,"street":"750 Twin Pines Trail","city":"Philadelphia","state":"Pennsylvania","zip":"19196"},
{"id":82,"street":"55527 Oxford Plaza","city":"Saint Paul","state":"Minnesota","zip":"55146"},
{"id":83,"street":"41773 Hanover Drive","city":"Albany","state":"New York","zip":"12262"},
{"id":84,"street":"01084 Eggendart Pass","city":"Dayton","state":"Ohio","zip":"45408"},
{"id":85,"street":"345 Basil Road","city":"Clearwater","state":"Florida","zip":"33758"},
{"id":86,"street":"062 5th Park","city":"Homestead","state":"Florida","zip":"33034"},
{"id":87,"street":"1 Anderson Way","city":"Washington","state":"District of Columbia","zip":"20299"},
{"id":88,"street":"4279 Onsgard Junction","city":"Charlotte","state":"North Carolina","zip":"28278"},
{"id":89,"street":"64 Kenwood Circle","city":"Topeka","state":"Kansas","zip":"66617"},
{"id":90,"street":"76 Charing Cross Crossing","city":"Lincoln","state":"Nebraska","zip":"68524"},
{"id":91,"street":"6 Sheridan Parkway","city":"Toledo","state":"Ohio","zip":"43666"},
{"id":92,"street":"74186 Bluejay Hill","city":"Columbia","state":"Missouri","zip":"65211"},
{"id":93,"street":"46852 Basil Lane","city":"Saint Paul","state":"Minnesota","zip":"55103"},
{"id":94,"street":"689 Scoville Hill","city":"Philadelphia","state":"Pennsylvania","zip":"19120"},
{"id":95,"street":"93 Grim Terrace","city":"Houston","state":"Texas","zip":"77266"},
{"id":96,"street":"76381 Mallory Alley","city":"Lake Charles","state":"Louisiana","zip":"70607"},
{"id":97,"street":"08435 Golden Leaf Avenue","city":"Roanoke","state":"Virginia","zip":"24024"},
{"id":98,"street":"78721 Merrick Circle","city":"Minneapolis","state":"Minnesota","zip":"55407"},
{"id":99,"street":"32275 Melody Plaza","city":"Lansing","state":"Michigan","zip":"48912"},
{"id":100,"street":"743 Anhalt Pass","city":"Hayward","state":"California","zip":"94544"},
{"id":101,"street":"2316 Stang Park","city":"Des Moines","state":"Iowa","zip":"50362"},
{"id":102,"street":"9 Bellgrove Park","city":"Yonkers","state":"New York","zip":"10705"},
{"id":103,"street":"38434 Arapahoe Street","city":"Fort Worth","state":"Texas","zip":"76162"},
{"id":104,"street":"4 Union Park","city":"Huntington","state":"West Virginia","zip":"25721"},
{"id":105,"street":"7 Heath Avenue","city":"El Paso","state":"Texas","zip":"79934"},
{"id":106,"street":"5441 Del Mar Circle","city":"Toledo","state":"Ohio","zip":"43615"},
{"id":107,"street":"84615 Pearson Alley","city":"Canton","state":"Ohio","zip":"44710"},
{"id":108,"street":"08868 Prentice Hill","city":"Omaha","state":"Nebraska","zip":"68197"},
{"id":109,"street":"89851 Novick Park","city":"Tucson","state":"Arizona","zip":"85754"},
{"id":110,"street":"670 Crest Line Junction","city":"Atlanta","state":"Georgia","zip":"31165"},
{"id":111,"street":"4312 Del Sol Alley","city":"Bronx","state":"New York","zip":"10474"},
{"id":112,"street":"8 Orin Terrace","city":"Sacramento","state":"California","zip":"94286"},
{"id":113,"street":"1795 Randy Pass","city":"Dayton","state":"Ohio","zip":"45426"},
{"id":114,"street":"034 North Way","city":"Augusta","state":"Georgia","zip":"30911"},
{"id":115,"street":"9766 Eliot Parkway","city":"Waco","state":"Texas","zip":"76711"},
{"id":116,"street":"25 Hoepker Road","city":"Fresno","state":"California","zip":"93740"},
{"id":117,"street":"993 Welch Crossing","city":"Charleston","state":"West Virginia","zip":"25326"},
{"id":118,"street":"5064 Commercial Junction","city":"New York City","state":"New York","zip":"10203"},
{"id":119,"street":"04430 Harbort Hill","city":"Las Vegas","state":"Nevada","zip":"89110"},
{"id":120,"street":"62693 Burning Wood Terrace","city":"Amarillo","state":"Texas","zip":"79182"},
{"id":121,"street":"9 Carey Drive","city":"Las Vegas","state":"Nevada","zip":"89105"},
{"id":122,"street":"17 Vernon Junction","city":"Houston","state":"Texas","zip":"77020"},
{"id":123,"street":"63089 Reinke Terrace","city":"Birmingham","state":"Alabama","zip":"35244"},
{"id":124,"street":"34465 Warbler Street","city":"Northridge","state":"California","zip":"91328"},
{"id":125,"street":"02 Steensland Park","city":"Brooklyn","state":"New York","zip":"11210"},
{"id":126,"street":"84 Green Lane","city":"Chico","state":"California","zip":"95973"},
{"id":127,"street":"8 Ludington Trail","city":"Austin","state":"Texas","zip":"78737"},
{"id":128,"street":"1 Elgar Street","city":"Savannah","state":"Georgia","zip":"31416"},
{"id":129,"street":"5 Morrow Park","city":"Baltimore","state":"Maryland","zip":"21239"},
{"id":130,"street":"38299 Pleasure Alley","city":"Hattiesburg","state":"Mississippi","zip":"39404"},
{"id":131,"street":"1292 Banding Avenue","city":"Tacoma","state":"Washington","zip":"98481"},
{"id":132,"street":"0496 Armistice Junction","city":"Louisville","state":"Kentucky","zip":"40225"},
{"id":133,"street":"348 Lunder Park","city":"Abilene","state":"Texas","zip":"79699"},
{"id":134,"street":"49 Tony Center","city":"Louisville","state":"Kentucky","zip":"40220"},
{"id":135,"street":"956 Dwight Junction","city":"Mount Vernon","state":"New York","zip":"10557"},
{"id":136,"street":"6 Declaration Parkway","city":"Syracuse","state":"New York","zip":"13251"},
{"id":137,"street":"64857 Heffernan Hill","city":"Charlottesville","state":"Virginia","zip":"22903"},
{"id":138,"street":"63678 Toban Court","city":"Kansas City","state":"Missouri","zip":"64125"},
{"id":139,"street":"31019 Dunning Alley","city":"Delray Beach","state":"Florida","zip":"33448"},
{"id":140,"street":"355 Lindbergh Point","city":"Birmingham","state":"Alabama","zip":"35236"},
{"id":141,"street":"4 Oak Center","city":"Port Charlotte","state":"Florida","zip":"33954"},
{"id":142,"street":"59622 Upham Circle","city":"Dayton","state":"Ohio","zip":"45454"},
{"id":143,"street":"094 Tony Trail","city":"Oakland","state":"California","zip":"94660"},
{"id":144,"street":"3082 Petterle Pass","city":"Baton Rouge","state":"Louisiana","zip":"70883"},
{"id":145,"street":"5 Lakewood Gardens Lane","city":"Delray Beach","state":"Florida","zip":"33448"},
{"id":146,"street":"6 Maple Plaza","city":"Port Saint Lucie","state":"Florida","zip":"34985"},
{"id":147,"street":"70 Eggendart Plaza","city":"Des Moines","state":"Iowa","zip":"50335"},
{"id":148,"street":"48 Myrtle Junction","city":"Ventura","state":"California","zip":"93005"},
{"id":149,"street":"23 Bayside Trail","city":"Huntsville","state":"Alabama","zip":"35810"},
{"id":150,"street":"73 Chive Point","city":"Miami","state":"Florida","zip":"33180"},
{"id":151,"street":"46840 Kropf Road","city":"Tucson","state":"Arizona","zip":"85743"},
{"id":152,"street":"5 Anderson Court","city":"Honolulu","state":"Hawaii","zip":"96805"},
{"id":153,"street":"03 Harper Circle","city":"Washington","state":"District of Columbia","zip":"20268"},
{"id":154,"street":"16 5th Parkway","city":"Minneapolis","state":"Minnesota","zip":"55407"},
{"id":155,"street":"5 Butternut Circle","city":"El Paso","state":"Texas","zip":"79950"},
{"id":156,"street":"4 Prentice Trail","city":"Knoxville","state":"Tennessee","zip":"37939"},
{"id":157,"street":"4250 Calypso Avenue","city":"San Jose","state":"California","zip":"95118"},
{"id":158,"street":"38 Hallows Court","city":"Anderson","state":"South Carolina","zip":"29625"},
{"id":159,"street":"48802 Evergreen Circle","city":"Richmond","state":"Virginia","zip":"23213"},
{"id":160,"street":"9 Ronald Regan Center","city":"Riverside","state":"California","zip":"92505"},
{"id":161,"street":"41 Namekagon Point","city":"Sacramento","state":"California","zip":"94297"},
{"id":162,"street":"165 Portage Terrace","city":"Fort Lauderdale","state":"Florida","zip":"33330"},
{"id":163,"street":"008 Weeping Birch Point","city":"Gastonia","state":"North Carolina","zip":"28055"},
{"id":164,"street":"0481 Ryan Center","city":"Riverside","state":"California","zip":"92519"},
{"id":165,"street":"37833 Leroy Center","city":"San Jose","state":"California","zip":"95173"},
{"id":166,"street":"56259 Becker Drive","city":"Seattle","state":"Washington","zip":"98109"},
{"id":167,"street":"3167 Maple Wood Road","city":"Young America","state":"Minnesota","zip":"55564"},
{"id":168,"street":"86782 Garrison Street","city":"Rochester","state":"New York","zip":"14639"},
{"id":169,"street":"068 Veith Hill","city":"Houston","state":"Texas","zip":"77070"},
{"id":170,"street":"47 Melrose Plaza","city":"Dallas","state":"Texas","zip":"75310"},
{"id":171,"street":"2119 Westerfield Junction","city":"Irvine","state":"California","zip":"92612"},
{"id":172,"street":"5 Florence Street","city":"Erie","state":"Pennsylvania","zip":"16534"},
{"id":173,"street":"6 Grayhawk Place","city":"Burbank","state":"California","zip":"91505"},
{"id":174,"street":"06 Banding Parkway","city":"San Francisco","state":"California","zip":"94159"},
{"id":175,"street":"5 Toban Trail","city":"West Palm Beach","state":"Florida","zip":"33416"},
{"id":176,"street":"89 Buell Circle","city":"Salt Lake City","state":"Utah","zip":"84120"},
{"id":177,"street":"85591 Mitchell Lane","city":"Kansas City","state":"Missouri","zip":"64109"},
{"id":178,"street":"43 Loftsgordon Circle","city":"Huntington","state":"West Virginia","zip":"25770"},
{"id":179,"street":"89 Forest Alley","city":"Las Vegas","state":"Nevada","zip":"89105"},
{"id":180,"street":"56595 West Parkway","city":"Bethesda","state":"Maryland","zip":"20892"},
{"id":181,"street":"59292 Mccormick Crossing","city":"Tacoma","state":"Washington","zip":"98405"},
{"id":182,"street":"59 Luster Park","city":"New Haven","state":"Connecticut","zip":"06533"},
{"id":183,"street":"4 Barby Court","city":"Jackson","state":"Mississippi","zip":"39282"},
{"id":184,"street":"39439 Straubel Pass","city":"Oklahoma City","state":"Oklahoma","zip":"73190"},
{"id":185,"street":"252 Hintze Circle","city":"Sacramento","state":"California","zip":"94280"},
{"id":186,"street":"2 Vera Pass","city":"Fresno","state":"California","zip":"93786"},
{"id":187,"street":"3 Toban Court","city":"Great Neck","state":"New York","zip":"11024"},
{"id":188,"street":"32 Johnson Drive","city":"Fort Worth","state":"Texas","zip":"76110"},
{"id":189,"street":"574 Beilfuss Hill","city":"Washington","state":"District of Columbia","zip":"20430"},
{"id":190,"street":"87 Red Cloud Way","city":"Pittsburgh","state":"Pennsylvania","zip":"15250"},
{"id":191,"street":"8751 Roxbury Drive","city":"Knoxville","state":"Tennessee","zip":"37939"},
{"id":192,"street":"46 Welch Junction","city":"Phoenix","state":"Arizona","zip":"85030"},
{"id":193,"street":"689 Manitowish Court","city":"Madison","state":"Wisconsin","zip":"53710"},
{"id":194,"street":"19 Novick Trail","city":"San Francisco","state":"California","zip":"94142"},
{"id":195,"street":"09404 Bobwhite Crossing","city":"Huntington","state":"West Virginia","zip":"25770"},
{"id":196,"street":"57147 Lakewood Gardens Avenue","city":"Lansing","state":"Michigan","zip":"48956"},
{"id":197,"street":"56 Arapahoe Pass","city":"Houston","state":"Texas","zip":"77055"},
{"id":198,"street":"691 Sauthoff Lane","city":"El Paso","state":"Texas","zip":"79955"},
{"id":199,"street":"69494 John Wall Center","city":"Atlanta","state":"Georgia","zip":"30358"},
{"id":200,"street":"97091 Vermont Circle","city":"Athens","state":"Georgia","zip":"30605"},
{"id":201,"street":"4 Sherman Crossing","city":"Scranton","state":"Pennsylvania","zip":"18505"},
{"id":202,"street":"53531 Michigan Drive","city":"Buffalo","state":"New York","zip":"14220"},
{"id":203,"street":"8820 Arkansas Road","city":"Houston","state":"Texas","zip":"77206"},
{"id":204,"street":"0 Hoard Park","city":"Philadelphia","state":"Pennsylvania","zip":"19125"},
{"id":205,"street":"1364 Aberg Road","city":"Los Angeles","state":"California","zip":"90050"},
{"id":206,"street":"503 Arapahoe Lane","city":"Springfield","state":"Illinois","zip":"62756"},
{"id":207,"street":"73606 Meadow Ridge Terrace","city":"Newton","state":"Massachusetts","zip":"02162"},
{"id":208,"street":"068 Kenwood Drive","city":"Tulsa","state":"Oklahoma","zip":"74126"},
{"id":209,"street":"1 Johnson Pass","city":"Detroit","state":"Michigan","zip":"48211"},
{"id":210,"street":"65264 Dottie Street","city":"Tacoma","state":"Washington","zip":"98447"},
{"id":211,"street":"036 Quincy Parkway","city":"Austin","state":"Texas","zip":"78744"},
{"id":212,"street":"7473 Declaration Pass","city":"Los Angeles","state":"California","zip":"90060"},
{"id":213,"street":"7 Coolidge Trail","city":"Palm Bay","state":"Florida","zip":"32909"},
{"id":214,"street":"2 Kings Point","city":"Newport News","state":"Virginia","zip":"23605"},
{"id":215,"street":"2808 Morningstar Point","city":"Las Vegas","state":"Nevada","zip":"89115"},
{"id":216,"street":"3 Columbus Point","city":"Hartford","state":"Connecticut","zip":"06140"},
{"id":217,"street":"014 Troy Street","city":"Tyler","state":"Texas","zip":"75799"},
{"id":218,"street":"7524 Monument Point","city":"Columbus","state":"Georgia","zip":"31904"},
{"id":219,"street":"316 Buhler Junction","city":"Miami","state":"Florida","zip":"33261"},
{"id":220,"street":"71624 Nobel Lane","city":"Phoenix","state":"Arizona","zip":"85045"},
{"id":221,"street":"3269 Elgar Point","city":"Augusta","state":"Georgia","zip":"30919"},
{"id":222,"street":"69 Springview Parkway","city":"Buffalo","state":"New York","zip":"14220"},
{"id":223,"street":"823 Schlimgen Drive","city":"Tulsa","state":"Oklahoma","zip":"74156"},
{"id":224,"street":"6 Merry Center","city":"Newton","state":"Massachusetts","zip":"02458"},
{"id":225,"street":"047 Cascade Plaza","city":"Oklahoma City","state":"Oklahoma","zip":"73142"},
{"id":226,"street":"8989 Westend Junction","city":"Orlando","state":"Florida","zip":"32835"},
{"id":227,"street":"49 Ohio Crossing","city":"San Antonio","state":"Texas","zip":"78220"},
{"id":228,"street":"4628 Elmside Parkway","city":"Saint Louis","state":"Missouri","zip":"63104"},
{"id":229,"street":"1 Scofield Alley","city":"Fredericksburg","state":"Virginia","zip":"22405"},
{"id":230,"street":"1 Susan Road","city":"Albany","state":"New York","zip":"12247"},
{"id":231,"street":"48114 Burning Wood Road","city":"San Diego","state":"California","zip":"92132"},
{"id":232,"street":"86802 Mifflin Plaza","city":"Maple Plain","state":"Minnesota","zip":"55579"},
{"id":233,"street":"02393 Maywood Circle","city":"Peoria","state":"Illinois","zip":"61640"},
{"id":234,"street":"5 Northview Junction","city":"Tuscaloosa","state":"Alabama","zip":"35405"},
{"id":235,"street":"5282 Melody Point","city":"Riverside","state":"California","zip":"92505"},
{"id":236,"street":"994 5th Pass","city":"Pompano Beach","state":"Florida","zip":"33069"},
{"id":237,"street":"726 Moose Plaza","city":"Washington","state":"District of Columbia","zip":"20530"},
{"id":238,"street":"3670 Browning Center","city":"Newton","state":"Massachusetts","zip":"02162"},
{"id":239,"street":"56 Heffernan Terrace","city":"Detroit","state":"Michigan","zip":"48232"},
{"id":240,"street":"381 Stuart Junction","city":"San Antonio","state":"Texas","zip":"78220"},
{"id":241,"street":"45 Clarendon Street","city":"Raleigh","state":"North Carolina","zip":"27690"},
{"id":242,"street":"5769 Roxbury Parkway","city":"Providence","state":"Rhode Island","zip":"02912"},
{"id":243,"street":"2666 Rockefeller Circle","city":"Charleston","state":"West Virginia","zip":"25321"},
{"id":244,"street":"0665 Fair Oaks Trail","city":"Memphis","state":"Tennessee","zip":"38126"},
{"id":245,"street":"033 Briar Crest Crossing","city":"Albany","state":"New York","zip":"12205"},
{"id":246,"street":"5492 Debs Alley","city":"Columbus","state":"Ohio","zip":"43204"},
{"id":247,"street":"61 Schiller Street","city":"Paterson","state":"New Jersey","zip":"07522"},
{"id":248,"street":"08 Erie Court","city":"College Station","state":"Texas","zip":"77844"},
{"id":249,"street":"5 Green Ridge Parkway","city":"Largo","state":"Florida","zip":"33777"},
{"id":250,"street":"36535 Kipling Way","city":"Honolulu","state":"Hawaii","zip":"96820"},
{"id":251,"street":"22407 Fallview Center","city":"Boulder","state":"Colorado","zip":"80310"},
{"id":252,"street":"32 Anthes Hill","city":"Pittsburgh","state":"Pennsylvania","zip":"15286"},
{"id":253,"street":"4553 Daystar Drive","city":"Houston","state":"Texas","zip":"77080"},
{"id":254,"street":"6 Golf Crossing","city":"Denver","state":"Colorado","zip":"80299"},
{"id":255,"street":"6260 Pawling Crossing","city":"Orlando","state":"Florida","zip":"32825"},
{"id":256,"street":"43 Oxford Way","city":"Houston","state":"Texas","zip":"77025"},
{"id":257,"street":"3 Green Plaza","city":"Baltimore","state":"Maryland","zip":"21290"},
{"id":258,"street":"33 Cherokee Alley","city":"Fort Lauderdale","state":"Florida","zip":"33336"},
{"id":259,"street":"2637 Mockingbird Road","city":"New York City","state":"New York","zip":"10249"},
{"id":260,"street":"6564 Manufacturers Drive","city":"Bethesda","state":"Maryland","zip":"20816"},
{"id":261,"street":"74474 Birchwood Junction","city":"San Diego","state":"California","zip":"92165"},
{"id":262,"street":"254 Anthes Terrace","city":"Maple Plain","state":"Minnesota","zip":"55579"},
{"id":263,"street":"2225 Glacier Hill Parkway","city":"Charlotte","state":"North Carolina","zip":"28272"},
{"id":264,"street":"4900 Fallview Hill","city":"Albuquerque","state":"New Mexico","zip":"87121"},
{"id":265,"street":"8 Reindahl Crossing","city":"Minneapolis","state":"Minnesota","zip":"55417"},
{"id":266,"street":"73 Green Ridge Drive","city":"Jacksonville","state":"Florida","zip":"32277"},
{"id":267,"street":"74 Service Road","city":"Fort Pierce","state":"Florida","zip":"34949"},
{"id":268,"street":"2305 Kedzie Road","city":"Beaumont","state":"Texas","zip":"77713"},
{"id":269,"street":"5403 Bayside Lane","city":"Philadelphia","state":"Pennsylvania","zip":"19093"},
{"id":270,"street":"73 Oakridge Point","city":"Austin","state":"Texas","zip":"78715"},
{"id":271,"street":"5729 Manufacturers Plaza","city":"Newark","state":"New Jersey","zip":"07195"},
{"id":272,"street":"038 8th Junction","city":"Woburn","state":"Massachusetts","zip":"01813"},
{"id":273,"street":"3612 Sundown Street","city":"Tulsa","state":"Oklahoma","zip":"74184"},
{"id":274,"street":"0412 Bowman Street","city":"Burbank","state":"California","zip":"91520"},
{"id":275,"street":"342 Delladonna Street","city":"North Las Vegas","state":"Nevada","zip":"89087"},
{"id":276,"street":"4 Lukken Circle","city":"Portsmouth","state":"New Hampshire","zip":"00214"},
{"id":277,"street":"314 Melrose Center","city":"Baton Rouge","state":"Louisiana","zip":"70826"},
{"id":278,"street":"19502 Drewry Road","city":"Wilkes Barre","state":"Pennsylvania","zip":"18768"},
{"id":279,"street":"0 Columbus Point","city":"Austin","state":"Texas","zip":"78744"},
{"id":280,"street":"3 Merry Court","city":"Norfolk","state":"Virginia","zip":"23520"},
{"id":281,"street":"1575 Dennis Alley","city":"New Haven","state":"Connecticut","zip":"06510"},
{"id":282,"street":"6 Russell Center","city":"Long Beach","state":"California","zip":"90831"},
{"id":283,"street":"9 Sunnyside Parkway","city":"Miami","state":"Florida","zip":"33245"},
{"id":284,"street":"1 Loeprich Place","city":"Jersey City","state":"New Jersey","zip":"07310"},
{"id":285,"street":"4 Mcguire Street","city":"Tallahassee","state":"Florida","zip":"32314"},
{"id":286,"street":"4274 Laurel Parkway","city":"Marietta","state":"Georgia","zip":"30061"},
{"id":287,"street":"6 Graedel Avenue","city":"Houston","state":"Texas","zip":"77095"},
{"id":288,"street":"3047 Butterfield Circle","city":"Wichita","state":"Kansas","zip":"67205"},
{"id":289,"street":"2 Pleasure Lane","city":"Lakeland","state":"Florida","zip":"33805"},
{"id":290,"street":"26 Marcy Point","city":"Shreveport","state":"Louisiana","zip":"71105"},
{"id":291,"street":"030 Farmco Terrace","city":"Lubbock","state":"Texas","zip":"79491"},
{"id":292,"street":"40 Garrison Plaza","city":"Jeffersonville","state":"Indiana","zip":"47134"},
{"id":293,"street":"8 Golden Leaf Alley","city":"Phoenix","state":"Arizona","zip":"85099"},
{"id":294,"street":"3 East Crossing","city":"Anderson","state":"South Carolina","zip":"29625"},
{"id":295,"street":"69646 Arrowood Center","city":"Bozeman","state":"Montana","zip":"59771"},
{"id":296,"street":"09543 Killdeer Center","city":"Sacramento","state":"California","zip":"94245"},
{"id":297,"street":"411 Little Fleur Way","city":"Newark","state":"New Jersey","zip":"07195"},
{"id":298,"street":"27259 Hooker Junction","city":"Fayetteville","state":"North Carolina","zip":"28314"},
{"id":299,"street":"1111 Carioca Crossing","city":"Appleton","state":"Wisconsin","zip":"54915"},
{"id":300,"street":"87946 Golf Court","city":"Washington","state":"District of Columbia","zip":"20215"},
{"id":301,"street":"618 Eastlawn Street","city":"Brooklyn","state":"New York","zip":"11215"},
{"id":302,"street":"200 John Wall Alley","city":"Van Nuys","state":"California","zip":"91499"},
{"id":303,"street":"91 Graedel Lane","city":"Zephyrhills","state":"Florida","zip":"33543"},
{"id":304,"street":"7 Jackson Court","city":"Raleigh","state":"North Carolina","zip":"27610"},
{"id":305,"street":"81 La Follette Way","city":"Orlando","state":"Florida","zip":"32825"},
{"id":306,"street":"8120 Sommers Plaza","city":"Madison","state":"Wisconsin","zip":"53785"},
{"id":307,"street":"56807 Monument Court","city":"Pompano Beach","state":"Florida","zip":"33064"},
{"id":308,"street":"5 Manufacturers Court","city":"Boise","state":"Idaho","zip":"83705"},
{"id":309,"street":"6567 Donald Crossing","city":"Atlanta","state":"Georgia","zip":"31119"},
{"id":310,"street":"4 Westridge Place","city":"Newport News","state":"Virginia","zip":"23605"},
{"id":311,"street":"8977 Novick Park","city":"Spokane","state":"Washington","zip":"99205"},
{"id":312,"street":"5332 Dennis Hill","city":"San Francisco","state":"California","zip":"94147"},
{"id":313,"street":"004 Bay Street","city":"San Diego","state":"California","zip":"92191"},
{"id":314,"street":"62 New Castle Alley","city":"Terre Haute","state":"Indiana","zip":"47812"},
{"id":315,"street":"41 Bultman Way","city":"Orange","state":"California","zip":"92668"},
{"id":316,"street":"5363 Schmedeman Place","city":"Philadelphia","state":"Pennsylvania","zip":"19196"},
{"id":317,"street":"089 Kings Road","city":"Mesa","state":"Arizona","zip":"85205"},
{"id":318,"street":"7771 Hintze Drive","city":"Jackson","state":"Mississippi","zip":"39216"},
{"id":319,"street":"0 Corben Crossing","city":"Dallas","state":"Texas","zip":"75367"},
{"id":320,"street":"21 Forster Pass","city":"Mesa","state":"Arizona","zip":"85205"},
{"id":321,"street":"3 Elmside Hill","city":"El Paso","state":"Texas","zip":"88589"},
{"id":322,"street":"5 Elmside Junction","city":"Tacoma","state":"Washington","zip":"98442"},
{"id":323,"street":"0950 Charing Cross Road","city":"Midland","state":"Michigan","zip":"48670"},
{"id":324,"street":"93 Shoshone Lane","city":"North Hollywood","state":"California","zip":"91606"},
{"id":325,"street":"039 Schlimgen Drive","city":"Omaha","state":"Nebraska","zip":"68117"},
{"id":326,"street":"07912 Eastwood Place","city":"Las Vegas","state":"Nevada","zip":"89166"},
{"id":327,"street":"6 Hooker Drive","city":"New Brunswick","state":"New Jersey","zip":"08922"},
{"id":328,"street":"467 Homewood Street","city":"Philadelphia","state":"Pennsylvania","zip":"19151"},
{"id":329,"street":"602 Gulseth Road","city":"Honolulu","state":"Hawaii","zip":"96820"},
{"id":330,"street":"04598 Reinke Pass","city":"Las Vegas","state":"Nevada","zip":"89115"},
{"id":331,"street":"24602 Kinsman Drive","city":"Saint Louis","state":"Missouri","zip":"63104"},
{"id":332,"street":"0 Grayhawk Alley","city":"Montgomery","state":"Alabama","zip":"36134"},
{"id":333,"street":"076 Bartelt Street","city":"Huntsville","state":"Alabama","zip":"35815"},
{"id":334,"street":"53 Bay Road","city":"Salt Lake City","state":"Utah","zip":"84115"},
{"id":335,"street":"0 Kensington Lane","city":"Palm Bay","state":"Florida","zip":"32909"},
{"id":336,"street":"25 Lerdahl Lane","city":"Miami","state":"Florida","zip":"33169"},
{"id":337,"street":"4 Melrose Junction","city":"Corpus Christi","state":"Texas","zip":"78405"},
{"id":338,"street":"0227 Chinook Plaza","city":"Chandler","state":"Arizona","zip":"85246"},
{"id":339,"street":"232 Chinook Plaza","city":"Columbus","state":"Georgia","zip":"31914"},
{"id":340,"street":"8 Meadow Valley Alley","city":"Naples","state":"Florida","zip":"34114"},
{"id":341,"street":"737 Hanover Road","city":"Chicago","state":"Illinois","zip":"60641"},
{"id":342,"street":"4630 John Wall Street","city":"Vienna","state":"Virginia","zip":"22184"},
{"id":343,"street":"41 Starling Center","city":"Indianapolis","state":"Indiana","zip":"46226"},
{"id":344,"street":"81777 Transport Pass","city":"Cincinnati","state":"Ohio","zip":"45271"},
{"id":345,"street":"20 Judy Road","city":"Fort Myers","state":"Florida","zip":"33994"},
{"id":346,"street":"787 Center Crossing","city":"Montgomery","state":"Alabama","zip":"36119"},
{"id":347,"street":"7 Derek Trail","city":"Washington","state":"District of Columbia","zip":"20397"},
{"id":348,"street":"38474 Huxley Pass","city":"Reading","state":"Pennsylvania","zip":"19605"},
{"id":349,"street":"0 Di Loreto Circle","city":"Boynton Beach","state":"Florida","zip":"33436"},
{"id":350,"street":"88 Hoffman Plaza","city":"Tampa","state":"Florida","zip":"33686"},
{"id":351,"street":"0492 Delaware Alley","city":"Wilmington","state":"Delaware","zip":"19810"},
{"id":352,"street":"0 Atwood Avenue","city":"Houston","state":"Texas","zip":"77065"},
{"id":353,"street":"5547 Randy Street","city":"New York City","state":"New York","zip":"10004"},
{"id":354,"street":"609 Northport Junction","city":"Charlotte","state":"North Carolina","zip":"28220"},
{"id":355,"street":"2753 Ilene Plaza","city":"Clearwater","state":"Florida","zip":"33763"},
{"id":356,"street":"7 Shoshone Alley","city":"Lexington","state":"Kentucky","zip":"40515"},
{"id":357,"street":"0595 Lien Plaza","city":"Flint","state":"Michigan","zip":"48550"},
{"id":358,"street":"37996 Crowley Place","city":"Louisville","state":"Kentucky","zip":"40225"},
{"id":359,"street":"39 Morningstar Avenue","city":"Kent","state":"Washington","zip":"98042"},
{"id":360,"street":"6093 Dixon Lane","city":"Miami","state":"Florida","zip":"33196"},
{"id":361,"street":"83 Trailsway Trail","city":"Kansas City","state":"Missouri","zip":"64109"},
{"id":362,"street":"67 Becker Park","city":"Saint Paul","state":"Minnesota","zip":"55114"},
{"id":363,"street":"36313 Cody Parkway","city":"Greensboro","state":"North Carolina","zip":"27425"},
{"id":364,"street":"87 Ruskin Avenue","city":"Pasadena","state":"Texas","zip":"77505"},
{"id":365,"street":"41 5th Plaza","city":"Lakeland","state":"Florida","zip":"33805"},
{"id":366,"street":"4 Graedel Place","city":"Pasadena","state":"California","zip":"91109"},
{"id":367,"street":"83191 Memorial Parkway","city":"Austin","state":"Texas","zip":"78769"},
{"id":368,"street":"740 Forest Way","city":"Tampa","state":"Florida","zip":"33673"},
{"id":369,"street":"7 Monica Drive","city":"Columbia","state":"South Carolina","zip":"29215"},
{"id":370,"street":"929 Riverside Road","city":"Chicago","state":"Illinois","zip":"60636"},
{"id":371,"street":"3 Texas Hill","city":"Houston","state":"Texas","zip":"77250"},
{"id":372,"street":"036 Spohn Plaza","city":"Redwood City","state":"California","zip":"94064"},
{"id":373,"street":"0 Surrey Road","city":"Albany","state":"New York","zip":"12262"},
{"id":374,"street":"3477 Arizona Park","city":"Sacramento","state":"California","zip":"94257"},
{"id":375,"street":"507 Waubesa Place","city":"Norfolk","state":"Virginia","zip":"23551"},
{"id":376,"street":"46108 Emmet Court","city":"Boulder","state":"Colorado","zip":"80305"},
{"id":377,"street":"7077 Sage Crossing","city":"Washington","state":"District of Columbia","zip":"20337"},
{"id":378,"street":"12 Arizona Parkway","city":"Oxnard","state":"California","zip":"93034"},
{"id":379,"street":"6474 Buell Way","city":"Birmingham","state":"Alabama","zip":"35263"},
{"id":380,"street":"3 Cascade Lane","city":"San Antonio","state":"Texas","zip":"78255"},
{"id":381,"street":"59053 Spenser Crossing","city":"Norfolk","state":"Virginia","zip":"23504"},
{"id":382,"street":"81736 Reinke Alley","city":"Miami","state":"Florida","zip":"33142"},
{"id":383,"street":"02332 Utah Pass","city":"Providence","state":"Rhode Island","zip":"02912"},
{"id":384,"street":"36 Morning Circle","city":"Huntington","state":"West Virginia","zip":"25716"},
{"id":385,"street":"61421 Bayside Junction","city":"Honolulu","state":"Hawaii","zip":"96820"},
{"id":386,"street":"257 Eliot Way","city":"Cincinnati","state":"Ohio","zip":"45249"},
{"id":387,"street":"4 Independence Road","city":"El Paso","state":"Texas","zip":"88530"},
{"id":388,"street":"328 Kings Drive","city":"Springfield","state":"Massachusetts","zip":"01129"},
{"id":389,"street":"03 Huxley Park","city":"Washington","state":"District of Columbia","zip":"20546"},
{"id":390,"street":"4 Eliot Street","city":"Los Angeles","state":"California","zip":"90015"},
{"id":391,"street":"8334 8th Point","city":"Jamaica","state":"New York","zip":"11436"},
{"id":392,"street":"72560 Moose Court","city":"Milwaukee","state":"Wisconsin","zip":"53285"},
{"id":393,"street":"3 Pennsylvania Parkway","city":"Spring Hill","state":"Florida","zip":"34611"},
{"id":394,"street":"593 Ryan Pass","city":"Dallas","state":"Texas","zip":"75265"},
{"id":395,"street":"68994 Superior Pass","city":"Naples","state":"Florida","zip":"34114"},
{"id":396,"street":"0 Michigan Pass","city":"Biloxi","state":"Mississippi","zip":"39534"},
{"id":397,"street":"80876 Elka Plaza","city":"Baton Rouge","state":"Louisiana","zip":"70894"},
{"id":398,"street":"44 Sachtjen Way","city":"Dearborn","state":"Michigan","zip":"48126"},
{"id":399,"street":"4457 Jana Center","city":"Bonita Springs","state":"Florida","zip":"34135"},
{"id":400,"street":"2204 Del Mar Drive","city":"Huntington","state":"West Virginia","zip":"25770"},
{"id":401,"street":"508 Sunnyside Hill","city":"Pittsburgh","state":"Pennsylvania","zip":"15205"},
{"id":402,"street":"895 Oneill Park","city":"Portsmouth","state":"New Hampshire","zip":"00214"},
{"id":403,"street":"08 Amoth Way","city":"Atlanta","state":"Georgia","zip":"30351"},
{"id":404,"street":"59 Starling Crossing","city":"Los Angeles","state":"California","zip":"90189"},
{"id":405,"street":"01772 Westend Crossing","city":"Olympia","state":"Washington","zip":"98506"},
{"id":406,"street":"1 Derek Place","city":"Rochester","state":"New York","zip":"14639"},
{"id":407,"street":"8 Mockingbird Parkway","city":"Peoria","state":"Illinois","zip":"61651"},
{"id":408,"street":"5 Randy Court","city":"Salt Lake City","state":"Utah","zip":"84110"},
{"id":409,"street":"3 Mallard Way","city":"Dallas","state":"Texas","zip":"75210"},
{"id":410,"street":"16 Center Park","city":"Frankfort","state":"Kentucky","zip":"40618"},
{"id":411,"street":"37 John Wall Alley","city":"El Paso","state":"Texas","zip":"79994"},
{"id":412,"street":"425 Mandrake Center","city":"Tulsa","state":"Oklahoma","zip":"74108"},
{"id":413,"street":"76280 Michigan Alley","city":"Humble","state":"Texas","zip":"77346"},
{"id":414,"street":"789 Ilene Park","city":"Brooklyn","state":"New York","zip":"11215"},
{"id":415,"street":"4493 Coolidge Center","city":"Tyler","state":"Texas","zip":"75799"},
{"id":416,"street":"0 Westend Circle","city":"Seattle","state":"Washington","zip":"98140"},
{"id":417,"street":"16 Summerview Circle","city":"Wilkes Barre","state":"Pennsylvania","zip":"18768"},
{"id":418,"street":"842 Fordem Junction","city":"Sioux Falls","state":"South Dakota","zip":"57188"},
{"id":419,"street":"92061 Steensland Avenue","city":"Dallas","state":"Texas","zip":"75379"},
{"id":420,"street":"1 Mitchell Avenue","city":"Dayton","state":"Ohio","zip":"45432"},
{"id":421,"street":"936 Twin Pines Plaza","city":"Staten Island","state":"New York","zip":"10305"},
{"id":422,"street":"3 Mariners Cove Center","city":"Oakland","state":"California","zip":"94627"},
{"id":423,"street":"5 Arapahoe Avenue","city":"Sacramento","state":"California","zip":"94250"},
{"id":424,"street":"514 Rusk Circle","city":"Dayton","state":"Ohio","zip":"45440"},
{"id":425,"street":"80573 Gale Circle","city":"Staten Island","state":"New York","zip":"10310"},
{"id":426,"street":"85 Fremont Pass","city":"Waterbury","state":"Connecticut","zip":"06705"},
{"id":427,"street":"065 Mayer Trail","city":"Fredericksburg","state":"Virginia","zip":"22405"},
{"id":428,"street":"3 Valley Edge Avenue","city":"Chesapeake","state":"Virginia","zip":"23324"},
{"id":429,"street":"6400 Cherokee Parkway","city":"London","state":"Kentucky","zip":"40745"},
{"id":430,"street":"5 Norway Maple Pass","city":"Anniston","state":"Alabama","zip":"36205"},
{"id":431,"street":"49949 Orin Trail","city":"Newton","state":"Massachusetts","zip":"02162"},
{"id":432,"street":"903 Jana Lane","city":"Miami Beach","state":"Florida","zip":"33141"},
{"id":433,"street":"21 Prentice Court","city":"Memphis","state":"Tennessee","zip":"38109"},
{"id":434,"street":"9 Buell Place","city":"Memphis","state":"Tennessee","zip":"38126"},
{"id":435,"street":"61 Carberry Avenue","city":"Savannah","state":"Georgia","zip":"31416"},
{"id":436,"street":"751 Anniversary Hill","city":"Dallas","state":"Texas","zip":"75236"},
{"id":437,"street":"005 Artisan Alley","city":"Greenville","state":"South Carolina","zip":"29615"},
{"id":438,"street":"31736 Tomscot Pass","city":"Washington","state":"District of Columbia","zip":"20010"},
{"id":439,"street":"945 Everett Lane","city":"Tulsa","state":"Oklahoma","zip":"74108"},
{"id":440,"street":"54 Division Alley","city":"Lexington","state":"Kentucky","zip":"40591"},
{"id":441,"street":"3 Namekagon Junction","city":"San Bernardino","state":"California","zip":"92410"},
{"id":442,"street":"10792 Maryland Circle","city":"Columbia","state":"South Carolina","zip":"29215"},
{"id":443,"street":"902 Pierstorff Junction","city":"Portland","state":"Oregon","zip":"97221"},
{"id":444,"street":"93599 Spohn Trail","city":"Anderson","state":"Indiana","zip":"46015"},
{"id":445,"street":"28 Spaight Court","city":"Brooklyn","state":"New York","zip":"11205"},
{"id":446,"street":"77 Bultman Way","city":"Pensacola","state":"Florida","zip":"32511"},
{"id":447,"street":"0 Shoshone Hill","city":"Saginaw","state":"Michigan","zip":"48604"},
{"id":448,"street":"81 American Trail","city":"Charlotte","state":"North Carolina","zip":"28278"},
{"id":449,"street":"53167 Forest Hill","city":"Richmond","state":"Virginia","zip":"23289"},
{"id":450,"street":"69847 Manufacturers Road","city":"Miami","state":"Florida","zip":"33158"},
{"id":451,"street":"21 Sherman Crossing","city":"Greensboro","state":"North Carolina","zip":"27425"},
{"id":452,"street":"8325 Kropf Place","city":"Arlington","state":"Virginia","zip":"22234"},
{"id":453,"street":"248 Pierstorff Street","city":"Milwaukee","state":"Wisconsin","zip":"53225"},
{"id":454,"street":"43 Mallard Pass","city":"Lima","state":"Ohio","zip":"45807"},
{"id":455,"street":"3310 Lakeland Parkway","city":"Charlottesville","state":"Virginia","zip":"22903"},
{"id":456,"street":"29 Autumn Leaf Way","city":"Des Moines","state":"Iowa","zip":"50369"},
{"id":457,"street":"788 Cascade Plaza","city":"Washington","state":"District of Columbia","zip":"20420"},
{"id":458,"street":"1426 Ridgeview Road","city":"Saint Joseph","state":"Missouri","zip":"64504"},
{"id":459,"street":"99327 Hoffman Junction","city":"Boise","state":"Idaho","zip":"83727"},
{"id":460,"street":"03 Elgar Point","city":"Augusta","state":"Georgia","zip":"30911"},
{"id":461,"street":"6 Red Cloud Avenue","city":"Las Vegas","state":"Nevada","zip":"89150"},
{"id":462,"street":"0705 Wayridge Park","city":"Arlington","state":"Texas","zip":"76016"},
{"id":463,"street":"7 Boyd Junction","city":"Clearwater","state":"Florida","zip":"34629"},
{"id":464,"street":"0 Johnson Junction","city":"Atlanta","state":"Georgia","zip":"30316"},
{"id":465,"street":"91 Bluestem Court","city":"Colorado Springs","state":"Colorado","zip":"80940"},
{"id":466,"street":"66477 Coolidge Park","city":"Cape Coral","state":"Florida","zip":"33915"},
{"id":467,"street":"662 La Follette Lane","city":"Northridge","state":"California","zip":"91328"},
{"id":468,"street":"8453 Dunning Court","city":"Richmond","state":"Virginia","zip":"23208"},
{"id":469,"street":"1532 Burning Wood Lane","city":"Jacksonville","state":"Florida","zip":"32220"},
{"id":470,"street":"6 Comanche Road","city":"Tacoma","state":"Washington","zip":"98405"},
{"id":471,"street":"34 Canary Way","city":"Portland","state":"Oregon","zip":"97229"},
{"id":472,"street":"41 Lake View Lane","city":"Homestead","state":"Florida","zip":"33034"},
{"id":473,"street":"49386 Montana Court","city":"Greensboro","state":"North Carolina","zip":"27455"},
{"id":474,"street":"7 7th Alley","city":"Cheyenne","state":"Wyoming","zip":"82007"},
{"id":475,"street":"3672 Forest Run Crossing","city":"Seattle","state":"Washington","zip":"98127"},
{"id":476,"street":"064 Welch Point","city":"Washington","state":"District of Columbia","zip":"20599"},
{"id":477,"street":"9983 Farragut Street","city":"Lincoln","state":"Nebraska","zip":"68531"},
{"id":478,"street":"35 Independence Junction","city":"Baltimore","state":"Maryland","zip":"21282"},
{"id":479,"street":"4 Surrey Center","city":"Providence","state":"Rhode Island","zip":"02912"},
{"id":480,"street":"4 Dennis Way","city":"Columbus","state":"Georgia","zip":"31914"},
{"id":481,"street":"38131 Mayfield Plaza","city":"Sarasota","state":"Florida","zip":"34233"},
{"id":482,"street":"5 Dahle Crossing","city":"Albuquerque","state":"New Mexico","zip":"87105"},
{"id":483,"street":"7508 Dexter Lane","city":"El Paso","state":"Texas","zip":"88563"},
{"id":484,"street":"98502 Sunfield Alley","city":"Lincoln","state":"Nebraska","zip":"68505"},
{"id":485,"street":"5 Kipling Court","city":"Grand Rapids","state":"Michigan","zip":"49518"},
{"id":486,"street":"82 Forest Road","city":"Fullerton","state":"California","zip":"92640"},
{"id":487,"street":"199 Ridgeway Hill","city":"Reston","state":"Virginia","zip":"22096"},
{"id":488,"street":"55 Lighthouse Bay Road","city":"Minneapolis","state":"Minnesota","zip":"55436"},
{"id":489,"street":"2931 Nobel Plaza","city":"Harrisburg","state":"Pennsylvania","zip":"17105"},
{"id":490,"street":"76 Graceland Point","city":"Amarillo","state":"Texas","zip":"79182"},
{"id":491,"street":"46 Drewry Street","city":"Fairbanks","state":"Alaska","zip":"99709"},
{"id":492,"street":"8 Surrey Crossing","city":"Richmond","state":"Virginia","zip":"23272"},
{"id":493,"street":"1812 Hallows Way","city":"Riverside","state":"California","zip":"92519"},
{"id":494,"street":"32 2nd Lane","city":"Annapolis","state":"Maryland","zip":"21405"},
{"id":495,"street":"449 Morning Road","city":"Birmingham","state":"Alabama","zip":"35279"},
{"id":496,"street":"801 Northport Pass","city":"Tampa","state":"Florida","zip":"33661"},
{"id":497,"street":"63642 Upham Place","city":"Dallas","state":"Texas","zip":"75251"},
{"id":498,"street":"827 Delladonna Trail","city":"Jamaica","state":"New York","zip":"11447"},
{"id":499,"street":"96227 Roxbury Street","city":"Odessa","state":"Texas","zip":"79764"},
{"id":500,"street":"2 Memorial Lane","city":"Buffalo","state":"New York","zip":"14269"},
{"id":501,"street":"040 Sloan Avenue","city":"Dayton","state":"Ohio","zip":"45414"},
{"id":502,"street":"52 Springview Trail","city":"Jamaica","state":"New York","zip":"11470"},
{"id":503,"street":"6193 Di Loreto Junction","city":"Bakersfield","state":"California","zip":"93305"},
{"id":504,"street":"328 Shoshone Junction","city":"Dayton","state":"Ohio","zip":"45419"},
{"id":505,"street":"958 Trailsway Street","city":"Boise","state":"Idaho","zip":"83716"},
{"id":506,"street":"9645 Leroy Drive","city":"Pensacola","state":"Florida","zip":"32505"},
{"id":507,"street":"019 Duke Junction","city":"Washington","state":"District of Columbia","zip":"20535"},
{"id":508,"street":"4842 8th Plaza","city":"San Diego","state":"California","zip":"92160"},
{"id":509,"street":"3977 Melby Terrace","city":"Shreveport","state":"Louisiana","zip":"71161"},
{"id":510,"street":"3755 Oak Center","city":"Greenville","state":"South Carolina","zip":"29605"},
{"id":511,"street":"8 Old Gate Park","city":"Cincinnati","state":"Ohio","zip":"45223"},
{"id":512,"street":"49673 Marquette Way","city":"Austin","state":"Texas","zip":"78789"},
{"id":513,"street":"6700 Butterfield Park","city":"Washington","state":"District of Columbia","zip":"20226"},
{"id":514,"street":"596 Corben Road","city":"Springfield","state":"Missouri","zip":"65898"},
{"id":515,"street":"71085 Banding Terrace","city":"Jacksonville","state":"Florida","zip":"32259"},
{"id":516,"street":"33 Erie Crossing","city":"Miami","state":"Florida","zip":"33283"},
{"id":517,"street":"5844 Golf Street","city":"Southfield","state":"Michigan","zip":"48076"},
{"id":518,"street":"9482 Grasskamp Junction","city":"Memphis","state":"Tennessee","zip":"38104"},
{"id":519,"street":"6 Fairfield Park","city":"Philadelphia","state":"Pennsylvania","zip":"19136"},
{"id":520,"street":"1 Moose Alley","city":"Everett","state":"Washington","zip":"98206"},
{"id":521,"street":"7 Michigan Crossing","city":"Lawrenceville","state":"Georgia","zip":"30045"},
{"id":522,"street":"9 Del Sol Crossing","city":"Honolulu","state":"Hawaii","zip":"96835"},
{"id":523,"street":"2250 Merry Point","city":"Lakeland","state":"Florida","zip":"33805"},
{"id":524,"street":"554 Golden Leaf Alley","city":"Cedar Rapids","state":"Iowa","zip":"52410"},
{"id":525,"street":"19437 Westport Point","city":"Boulder","state":"Colorado","zip":"80305"},
{"id":526,"street":"140 Fuller Center","city":"Lincoln","state":"Nebraska","zip":"68583"},
{"id":527,"street":"02033 Anthes Pass","city":"Richmond","state":"Virginia","zip":"23208"},
{"id":528,"street":"6434 Anderson Street","city":"Salt Lake City","state":"Utah","zip":"84152"},
{"id":529,"street":"23286 Saint Paul Pass","city":"Dallas","state":"Texas","zip":"75241"},
{"id":530,"street":"39343 Emmet Park","city":"Minneapolis","state":"Minnesota","zip":"55470"},
{"id":531,"street":"275 Westridge Plaza","city":"Houston","state":"Texas","zip":"77010"},
{"id":532,"street":"080 Mcbride Center","city":"Madison","state":"Wisconsin","zip":"53785"},
{"id":533,"street":"6139 Harbort Way","city":"Lexington","state":"Kentucky","zip":"40546"},
{"id":534,"street":"3362 Kenwood Point","city":"Springfield","state":"Illinois","zip":"62794"},
{"id":535,"street":"30 North Street","city":"Conroe","state":"Texas","zip":"77305"},
{"id":536,"street":"0742 Springs Street","city":"Sioux City","state":"Iowa","zip":"51110"},
{"id":537,"street":"827 Independence Park","city":"Bloomington","state":"Illinois","zip":"61709"},
{"id":538,"street":"65 Dottie Pass","city":"Los Angeles","state":"California","zip":"90020"},
{"id":539,"street":"318 Kinsman Junction","city":"El Paso","state":"Texas","zip":"88589"},
{"id":540,"street":"840 Burning Wood Center","city":"Grand Forks","state":"North Dakota","zip":"58207"},
{"id":541,"street":"57414 Lakeland Parkway","city":"Denver","state":"Colorado","zip":"80209"},
{"id":542,"street":"85973 Green Ridge Point","city":"Worcester","state":"Massachusetts","zip":"01605"},
{"id":543,"street":"95 Lunder Crossing","city":"Arvada","state":"Colorado","zip":"80005"},
{"id":544,"street":"40 Hintze Point","city":"Young America","state":"Minnesota","zip":"55564"},
{"id":545,"street":"874 Dixon Alley","city":"Albuquerque","state":"New Mexico","zip":"87201"},
{"id":546,"street":"206 Bunting Drive","city":"New York City","state":"New York","zip":"10090"},
{"id":547,"street":"4716 Larry Place","city":"Dallas","state":"Texas","zip":"75310"},
{"id":548,"street":"4682 Kingsford Court","city":"Fort Worth","state":"Texas","zip":"76105"},
{"id":549,"street":"3578 Merrick Place","city":"Harrisburg","state":"Pennsylvania","zip":"17140"},
{"id":550,"street":"5 New Castle Point","city":"New York City","state":"New York","zip":"10105"},
{"id":551,"street":"185 Main Alley","city":"Akron","state":"Ohio","zip":"44393"},
{"id":552,"street":"5 Kedzie Trail","city":"Duluth","state":"Minnesota","zip":"55811"},
{"id":553,"street":"654 Donald Junction","city":"Jackson","state":"Mississippi","zip":"39216"},
{"id":554,"street":"36129 Oriole Alley","city":"Jacksonville","state":"Florida","zip":"32204"},
{"id":555,"street":"1 Melvin Hill","city":"Memphis","state":"Tennessee","zip":"38104"},
{"id":556,"street":"22 Browning Way","city":"Albany","state":"New York","zip":"12262"},
{"id":557,"street":"5 Crowley Lane","city":"Temple","state":"Texas","zip":"76505"},
{"id":558,"street":"72748 Blaine Park","city":"North Hollywood","state":"California","zip":"91616"},
{"id":559,"street":"46052 Heath Crossing","city":"Charleston","state":"South Carolina","zip":"29424"},
{"id":560,"street":"68935 Waywood Junction","city":"Brooklyn","state":"New York","zip":"11220"},
{"id":561,"street":"6 Luster Junction","city":"Davenport","state":"Iowa","zip":"52804"},
{"id":562,"street":"779 School Alley","city":"Ogden","state":"Utah","zip":"84403"},
{"id":563,"street":"8380 Montana Point","city":"Fort Lauderdale","state":"Florida","zip":"33305"},
{"id":564,"street":"10 Derek Park","city":"Anchorage","state":"Alaska","zip":"99599"},
{"id":565,"street":"58 Arkansas Lane","city":"Syracuse","state":"New York","zip":"13210"},
{"id":566,"street":"4 Fallview Alley","city":"Greensboro","state":"North Carolina","zip":"27415"},
{"id":567,"street":"768 Village Trail","city":"Beaumont","state":"Texas","zip":"77705"},
{"id":568,"street":"948 Lerdahl Lane","city":"El Paso","state":"Texas","zip":"88563"},
{"id":569,"street":"8028 Scoville Circle","city":"Lexington","state":"Kentucky","zip":"40581"},
{"id":570,"street":"85798 Glacier Hill Park","city":"Green Bay","state":"Wisconsin","zip":"54305"},
{"id":571,"street":"55 Hanson Terrace","city":"El Paso","state":"Texas","zip":"88541"},
{"id":572,"street":"334 Elka Point","city":"Fort Wayne","state":"Indiana","zip":"46825"},
{"id":573,"street":"28132 Elmside Lane","city":"Homestead","state":"Florida","zip":"33034"},
{"id":574,"street":"89 Hintze Crossing","city":"Nashville","state":"Tennessee","zip":"37215"},
{"id":575,"street":"2475 Sunnyside Parkway","city":"Tulsa","state":"Oklahoma","zip":"74149"},
{"id":576,"street":"032 Anniversary Drive","city":"Houston","state":"Texas","zip":"77260"},
{"id":577,"street":"07282 Annamark Parkway","city":"Rochester","state":"New York","zip":"14624"},
{"id":578,"street":"33223 Kings Trail","city":"Memphis","state":"Tennessee","zip":"38197"},
{"id":579,"street":"9141 Katie Point","city":"Charleston","state":"West Virginia","zip":"25321"},
{"id":580,"street":"2 Hooker Place","city":"Sparks","state":"Nevada","zip":"89436"},
{"id":581,"street":"4122 Vermont Circle","city":"Omaha","state":"Nebraska","zip":"68117"},
{"id":582,"street":"2427 Barby Place","city":"Hartford","state":"Connecticut","zip":"06140"},
{"id":583,"street":"46817 Kinsman Park","city":"Troy","state":"Michigan","zip":"48098"},
{"id":584,"street":"6 Loomis Place","city":"Myrtle Beach","state":"South Carolina","zip":"29579"},
{"id":585,"street":"24041 Bayside Parkway","city":"Indianapolis","state":"Indiana","zip":"46216"},
{"id":586,"street":"3586 Dixon Hill","city":"Hartford","state":"Connecticut","zip":"06105"},
{"id":587,"street":"66 Sutherland Lane","city":"Washington","state":"District of Columbia","zip":"20535"},
{"id":588,"street":"285 2nd Crossing","city":"San Diego","state":"California","zip":"92145"},
{"id":589,"street":"74 Forster Pass","city":"Omaha","state":"Nebraska","zip":"68179"},
{"id":590,"street":"93 Lindbergh Street","city":"Anchorage","state":"Alaska","zip":"99522"},
{"id":591,"street":"5 Meadow Ridge Trail","city":"Huntington","state":"West Virginia","zip":"25705"},
{"id":592,"street":"89 Ridge Oak Street","city":"Palm Bay","state":"Florida","zip":"32909"},
{"id":593,"street":"52693 Lillian Road","city":"Inglewood","state":"California","zip":"90305"},
{"id":594,"street":"0 Fair Oaks Alley","city":"Canton","state":"Ohio","zip":"44710"},
{"id":595,"street":"3 Sherman Way","city":"Austin","state":"Texas","zip":"78726"},
{"id":596,"street":"192 Onsgard Trail","city":"Brooklyn","state":"New York","zip":"11231"},
{"id":597,"street":"2224 Carey Crossing","city":"Boston","state":"Massachusetts","zip":"02216"},
{"id":598,"street":"41463 Kensington Crossing","city":"Washington","state":"District of Columbia","zip":"20337"},
{"id":599,"street":"297 Fieldstone Hill","city":"Atlanta","state":"Georgia","zip":"30336"},
{"id":600,"street":"5 Chinook Avenue","city":"Richmond","state":"Virginia","zip":"23277"},
{"id":601,"street":"32680 Westridge Lane","city":"El Paso","state":"Texas","zip":"88546"},
{"id":602,"street":"285 Schurz Crossing","city":"Charleston","state":"West Virginia","zip":"25305"},
{"id":603,"street":"13 7th Drive","city":"Flint","state":"Michigan","zip":"48550"},
{"id":604,"street":"06399 Delladonna Alley","city":"Omaha","state":"Nebraska","zip":"68164"},
{"id":605,"street":"4799 Sundown Hill","city":"Saint Louis","state":"Missouri","zip":"63180"},
{"id":606,"street":"99 Namekagon Road","city":"Colorado Springs","state":"Colorado","zip":"80945"},
{"id":607,"street":"705 Hayes Park","city":"Troy","state":"Michigan","zip":"48098"},
{"id":608,"street":"58237 Delaware Hill","city":"Spokane","state":"Washington","zip":"99220"},
{"id":609,"street":"4 Fulton Terrace","city":"San Francisco","state":"California","zip":"94142"},
{"id":610,"street":"39645 Russell Park","city":"Minneapolis","state":"Minnesota","zip":"55423"},
{"id":611,"street":"38 Straubel Crossing","city":"Lynn","state":"Massachusetts","zip":"01905"},
{"id":612,"street":"27 Grayhawk Avenue","city":"Roanoke","state":"Virginia","zip":"24004"},
{"id":613,"street":"695 Stang Drive","city":"Eugene","state":"Oregon","zip":"97405"},
{"id":614,"street":"932 Coolidge Street","city":"Plano","state":"Texas","zip":"75074"},
{"id":615,"street":"17 Logan Way","city":"Simi Valley","state":"California","zip":"93094"},
{"id":616,"street":"8 Bayside Trail","city":"Cincinnati","state":"Ohio","zip":"45238"},
{"id":617,"street":"6493 Sheridan Plaza","city":"Danbury","state":"Connecticut","zip":"06816"},
{"id":618,"street":"98244 Comanche Terrace","city":"Oklahoma City","state":"Oklahoma","zip":"73147"},
{"id":619,"street":"6 Thackeray Place","city":"Fort Myers","state":"Florida","zip":"33906"},
{"id":620,"street":"4 Grim Parkway","city":"Shreveport","state":"Louisiana","zip":"71130"},
{"id":621,"street":"2319 Sauthoff Lane","city":"Philadelphia","state":"Pennsylvania","zip":"19104"},
{"id":622,"street":"6 Farragut Hill","city":"Fresno","state":"California","zip":"93740"},
{"id":623,"street":"597 5th Road","city":"Irving","state":"Texas","zip":"75062"},
{"id":624,"street":"0230 Wayridge Avenue","city":"Colorado Springs","state":"Colorado","zip":"80945"},
{"id":625,"street":"3891 Messerschmidt Trail","city":"Denver","state":"Colorado","zip":"80249"},
{"id":626,"street":"090 Magdeline Center","city":"Pittsburgh","state":"Pennsylvania","zip":"15261"},
{"id":627,"street":"90840 Russell Center","city":"Arlington","state":"Virginia","zip":"22225"},
{"id":628,"street":"21 Toban Trail","city":"Chico","state":"California","zip":"95973"},
{"id":629,"street":"7495 Fieldstone Terrace","city":"Saint Cloud","state":"Minnesota","zip":"56372"},
{"id":630,"street":"05 Lotheville Hill","city":"New York City","state":"New York","zip":"10019"},
{"id":631,"street":"16 Artisan Pass","city":"Corpus Christi","state":"Texas","zip":"78470"},
{"id":632,"street":"0 Mifflin Pass","city":"White Plains","state":"New York","zip":"10606"},
{"id":633,"street":"98 Esch Center","city":"Las Vegas","state":"Nevada","zip":"89105"},
{"id":634,"street":"5 Bunker Hill Pass","city":"Reno","state":"Nevada","zip":"89550"},
{"id":635,"street":"06 Everett Alley","city":"San Francisco","state":"California","zip":"94177"},
{"id":636,"street":"9897 Vidon Terrace","city":"Missoula","state":"Montana","zip":"59806"},
{"id":637,"street":"36 Thackeray Pass","city":"Evansville","state":"Indiana","zip":"47747"},
{"id":638,"street":"5717 Summerview Drive","city":"Jacksonville","state":"Florida","zip":"32244"},
{"id":639,"street":"326 Larry Avenue","city":"Long Beach","state":"California","zip":"90810"},
{"id":640,"street":"29 Arizona Crossing","city":"Washington","state":"District of Columbia","zip":"20005"},
{"id":641,"street":"53648 Russell Circle","city":"London","state":"Kentucky","zip":"40745"},
{"id":642,"street":"1088 Boyd Parkway","city":"Denver","state":"Colorado","zip":"80291"},
{"id":643,"street":"80402 Kim Hill","city":"Baton Rouge","state":"Louisiana","zip":"70836"},
{"id":644,"street":"866 5th Drive","city":"Memphis","state":"Tennessee","zip":"38109"},
{"id":645,"street":"7 Mayfield Plaza","city":"Charleston","state":"West Virginia","zip":"25331"},
{"id":646,"street":"4 Duke Park","city":"Chico","state":"California","zip":"95973"},
{"id":647,"street":"52 Redwing Junction","city":"Eugene","state":"Oregon","zip":"97405"},
{"id":648,"street":"1727 Hintze Court","city":"Norfolk","state":"Virginia","zip":"23514"},
{"id":649,"street":"6016 Fisk Trail","city":"Tulsa","state":"Oklahoma","zip":"74149"},
{"id":650,"street":"0 Riverside Lane","city":"Torrance","state":"California","zip":"90505"},
{"id":651,"street":"2 Dorton Park","city":"Irvine","state":"California","zip":"92619"},
{"id":652,"street":"91 Forest Court","city":"Youngstown","state":"Ohio","zip":"44505"},
{"id":653,"street":"85 Haas Way","city":"Aurora","state":"Colorado","zip":"80015"},
{"id":654,"street":"041 Hudson Alley","city":"Raleigh","state":"North Carolina","zip":"27621"},
{"id":655,"street":"39422 Cardinal Lane","city":"Louisville","state":"Kentucky","zip":"40280"},
{"id":656,"street":"3 Tennyson Hill","city":"Phoenix","state":"Arizona","zip":"85077"},
{"id":657,"street":"20960 Hovde Hill","city":"Muncie","state":"Indiana","zip":"47306"},
{"id":658,"street":"0 Anniversary Plaza","city":"Brockton","state":"Massachusetts","zip":"02305"},
{"id":659,"street":"80 Graedel Court","city":"New Orleans","state":"Louisiana","zip":"70179"},
{"id":660,"street":"043 Dahle Pass","city":"Atlanta","state":"Georgia","zip":"30368"},
{"id":661,"street":"6 Paget Place","city":"Brooklyn","state":"New York","zip":"11225"},
{"id":662,"street":"979 Farmco Circle","city":"Green Bay","state":"Wisconsin","zip":"54305"},
{"id":663,"street":"50587 Summerview Trail","city":"Mobile","state":"Alabama","zip":"36605"},
{"id":664,"street":"54 Old Shore Terrace","city":"Waterbury","state":"Connecticut","zip":"06726"},
{"id":665,"street":"05949 Huxley Park","city":"Kansas City","state":"Missouri","zip":"64109"},
{"id":666,"street":"97452 3rd Parkway","city":"Zephyrhills","state":"Florida","zip":"33543"},
{"id":667,"street":"16157 Hoard Center","city":"Saint Paul","state":"Minnesota","zip":"55115"},
{"id":668,"street":"333 Park Meadow Way","city":"Tampa","state":"Florida","zip":"33673"},
{"id":669,"street":"0 Warner Alley","city":"Washington","state":"District of Columbia","zip":"20380"},
{"id":670,"street":"4739 Haas Circle","city":"Brooklyn","state":"New York","zip":"11247"},
{"id":671,"street":"17670 Cardinal Place","city":"Portland","state":"Oregon","zip":"97216"},
{"id":672,"street":"21370 Blackbird Plaza","city":"Pasadena","state":"California","zip":"91199"},
{"id":673,"street":"72343 Spaight Park","city":"Sarasota","state":"Florida","zip":"34233"},
{"id":674,"street":"33326 Ryan Lane","city":"Sarasota","state":"Florida","zip":"34233"},
{"id":675,"street":"9629 American Point","city":"Fort Myers","state":"Florida","zip":"33906"},
{"id":676,"street":"243 Vera Park","city":"Huntington","state":"West Virginia","zip":"25775"},
{"id":677,"street":"3 Shopko Drive","city":"Grand Rapids","state":"Michigan","zip":"49518"},
{"id":678,"street":"48925 Pepper Wood Way","city":"Brooklyn","state":"New York","zip":"11231"},
{"id":679,"street":"08 Butternut Circle","city":"Vero Beach","state":"Florida","zip":"32964"},
{"id":680,"street":"5235 Pierstorff Point","city":"Philadelphia","state":"Pennsylvania","zip":"19160"},
{"id":681,"street":"006 Haas Hill","city":"Shreveport","state":"Louisiana","zip":"71137"},
{"id":682,"street":"99 Granby Crossing","city":"Shreveport","state":"Louisiana","zip":"71137"},
{"id":683,"street":"398 Del Sol Alley","city":"Boulder","state":"Colorado","zip":"80310"},
{"id":684,"street":"59 Ryan Crossing","city":"Las Vegas","state":"Nevada","zip":"89135"},
{"id":685,"street":"8333 Mockingbird Park","city":"Arlington","state":"Virginia","zip":"22217"},
{"id":686,"street":"2 Mockingbird Lane","city":"Austin","state":"Texas","zip":"78732"},
{"id":687,"street":"34721 Clyde Gallagher Circle","city":"Denver","state":"Colorado","zip":"80217"},
{"id":688,"street":"43921 Florence Junction","city":"Washington","state":"District of Columbia","zip":"20260"},
{"id":689,"street":"587 Talisman Park","city":"Phoenix","state":"Arizona","zip":"85025"},
{"id":690,"street":"55 Mccormick Plaza","city":"Kent","state":"Washington","zip":"98042"},
{"id":691,"street":"955 Lotheville Center","city":"Long Beach","state":"California","zip":"90805"},
{"id":692,"street":"803 Westend Center","city":"Saint Paul","state":"Minnesota","zip":"55188"},
{"id":693,"street":"62 Eastlawn Junction","city":"Daytona Beach","state":"Florida","zip":"32118"},
{"id":694,"street":"7 Washington Street","city":"Greensboro","state":"North Carolina","zip":"27404"},
{"id":695,"street":"35 Macpherson Parkway","city":"Newport Beach","state":"California","zip":"92662"},
{"id":696,"street":"24 School Court","city":"Saint Louis","state":"Missouri","zip":"63180"},
{"id":697,"street":"126 Almo Center","city":"Naperville","state":"Illinois","zip":"60567"},
{"id":698,"street":"5288 Westerfield Park","city":"San Rafael","state":"California","zip":"94913"},
{"id":699,"street":"60 Morrow Place","city":"Corona","state":"California","zip":"92883"},
{"id":700,"street":"1 Nancy Place","city":"Washington","state":"District of Columbia","zip":"20370"},
{"id":701,"street":"936 Clarendon Road","city":"Topeka","state":"Kansas","zip":"66642"},
{"id":702,"street":"85 Ronald Regan Parkway","city":"Iowa City","state":"Iowa","zip":"52245"},
{"id":703,"street":"141 Glacier Hill Hill","city":"Naples","state":"Florida","zip":"34102"},
{"id":704,"street":"7 Fieldstone Street","city":"Los Angeles","state":"California","zip":"90076"},
{"id":705,"street":"2 Sachtjen Circle","city":"Sunnyvale","state":"California","zip":"94089"},
{"id":706,"street":"85 Meadow Valley Center","city":"Toledo","state":"Ohio","zip":"43610"},
{"id":707,"street":"114 Hollow Ridge Crossing","city":"Omaha","state":"Nebraska","zip":"68117"},
{"id":708,"street":"20876 Straubel Trail","city":"Duluth","state":"Minnesota","zip":"55811"},
{"id":709,"street":"5 Ilene Alley","city":"Durham","state":"North Carolina","zip":"27717"},
{"id":710,"street":"6068 Sachs Plaza","city":"South Bend","state":"Indiana","zip":"46620"},
{"id":711,"street":"4515 East Court","city":"Dallas","state":"Texas","zip":"75236"},
{"id":712,"street":"3109 Independence Park","city":"Rochester","state":"New York","zip":"14614"},
{"id":713,"street":"177 Rigney Crossing","city":"Newport Beach","state":"California","zip":"92662"},
{"id":714,"street":"7490 Mifflin Place","city":"Saint Paul","state":"Minnesota","zip":"55146"},
{"id":715,"street":"2 Mitchell Trail","city":"Fairfax","state":"Virginia","zip":"22036"},
{"id":716,"street":"20 Bonner Junction","city":"Mesa","state":"Arizona","zip":"85215"},
{"id":717,"street":"9705 Hagan Alley","city":"Milwaukee","state":"Wisconsin","zip":"53277"},
{"id":718,"street":"4 Elgar Avenue","city":"Bakersfield","state":"California","zip":"93311"},
{"id":719,"street":"39 Mendota Junction","city":"Minneapolis","state":"Minnesota","zip":"55446"},
{"id":720,"street":"152 Kim Junction","city":"Washington","state":"District of Columbia","zip":"20051"},
{"id":721,"street":"7405 Pond Hill","city":"New York City","state":"New York","zip":"10150"},
{"id":722,"street":"8484 Jenna Park","city":"Atlanta","state":"Georgia","zip":"30328"},
{"id":723,"street":"41 Union Circle","city":"Cincinnati","state":"Ohio","zip":"45238"},
{"id":724,"street":"08 Waxwing Junction","city":"Detroit","state":"Michigan","zip":"48206"},
{"id":725,"street":"6 Main Way","city":"Fort Lauderdale","state":"Florida","zip":"33315"},
{"id":726,"street":"092 Buena Vista Crossing","city":"Waco","state":"Texas","zip":"76705"},
{"id":727,"street":"57 East Way","city":"Macon","state":"Georgia","zip":"31217"},
{"id":728,"street":"59 Del Sol Trail","city":"San Jose","state":"California","zip":"95123"},
{"id":729,"street":"06119 Meadow Vale Point","city":"Shreveport","state":"Louisiana","zip":"71115"},
{"id":730,"street":"222 Rigney Park","city":"Pueblo","state":"Colorado","zip":"81005"},
{"id":731,"street":"05232 Crowley Parkway","city":"Grand Rapids","state":"Michigan","zip":"49544"},
{"id":732,"street":"10580 Monument Place","city":"Provo","state":"Utah","zip":"84605"},
{"id":733,"street":"782 Mccormick Trail","city":"Los Angeles","state":"California","zip":"90065"},
{"id":734,"street":"14970 Reinke Center","city":"Tampa","state":"Florida","zip":"33615"},
{"id":735,"street":"412 Eliot Pass","city":"Clearwater","state":"Florida","zip":"34620"},
{"id":736,"street":"790 Melrose Junction","city":"Chicago","state":"Illinois","zip":"60674"},
{"id":737,"street":"3168 Village Green Crossing","city":"Oakland","state":"California","zip":"94627"},
{"id":738,"street":"24 Glendale Circle","city":"El Paso","state":"Texas","zip":"88589"},
{"id":739,"street":"05404 Brown Pass","city":"Dallas","state":"Texas","zip":"75353"},
{"id":740,"street":"44 Killdeer Avenue","city":"Sacramento","state":"California","zip":"94297"},
{"id":741,"street":"235 Glendale Parkway","city":"Sacramento","state":"California","zip":"94207"},
{"id":742,"street":"29861 Anzinger Pass","city":"Fort Wayne","state":"Indiana","zip":"46805"},
{"id":743,"street":"246 Elka Parkway","city":"Charleston","state":"South Carolina","zip":"29424"},
{"id":744,"street":"034 3rd Alley","city":"San Rafael","state":"California","zip":"94913"},
{"id":745,"street":"4225 Sutteridge Court","city":"Houston","state":"Texas","zip":"77206"},
{"id":746,"street":"72 Toban Hill","city":"Arlington","state":"Virginia","zip":"22205"},
{"id":747,"street":"0602 Spohn Center","city":"San Diego","state":"California","zip":"92132"},
{"id":748,"street":"71343 Sachs Terrace","city":"Elmira","state":"New York","zip":"14905"},
{"id":749,"street":"9362 Upham Pass","city":"Topeka","state":"Kansas","zip":"66642"},
{"id":750,"street":"1897 4th Center","city":"Cincinnati","state":"Ohio","zip":"45223"},
{"id":751,"street":"60225 Little Fleur Lane","city":"Pueblo","state":"Colorado","zip":"81010"},
{"id":752,"street":"29587 Twin Pines Junction","city":"Fullerton","state":"California","zip":"92640"},
{"id":753,"street":"61 Delaware Circle","city":"Worcester","state":"Massachusetts","zip":"01654"},
{"id":754,"street":"867 Randy Drive","city":"Lubbock","state":"Texas","zip":"79491"},
{"id":755,"street":"14606 Westerfield Plaza","city":"Colorado Springs","state":"Colorado","zip":"80995"},
{"id":756,"street":"6 Karstens Road","city":"Charlotte","state":"North Carolina","zip":"28299"},
{"id":757,"street":"417 Twin Pines Terrace","city":"Spokane","state":"Washington","zip":"99260"},
{"id":758,"street":"5 Golf View Lane","city":"Arlington","state":"Virginia","zip":"22225"},
{"id":759,"street":"85425 Prairie Rose Avenue","city":"Missoula","state":"Montana","zip":"59806"},
{"id":760,"street":"3880 Dorton Circle","city":"Sacramento","state":"California","zip":"95833"},
{"id":761,"street":"8 Esker Circle","city":"Tyler","state":"Texas","zip":"75705"},
{"id":762,"street":"311 Pond Plaza","city":"Dayton","state":"Ohio","zip":"45440"},
{"id":763,"street":"80475 Alpine Avenue","city":"Des Moines","state":"Iowa","zip":"50315"},
{"id":764,"street":"703 High Crossing Park","city":"Orlando","state":"Florida","zip":"32835"},
{"id":765,"street":"511 Loomis Circle","city":"Jersey City","state":"New Jersey","zip":"07310"},
{"id":766,"street":"9026 Dryden Center","city":"Billings","state":"Montana","zip":"59105"},
{"id":767,"street":"7 Nelson Place","city":"Vero Beach","state":"Florida","zip":"32969"},
{"id":768,"street":"74 Gina Terrace","city":"Scranton","state":"Pennsylvania","zip":"18514"},
{"id":769,"street":"22 Dexter Junction","city":"Washington","state":"District of Columbia","zip":"20205"},
{"id":770,"street":"074 Bluestem Hill","city":"Springfield","state":"Illinois","zip":"62711"},
{"id":771,"street":"1710 8th Road","city":"Washington","state":"District of Columbia","zip":"20546"},
{"id":772,"street":"450 Spenser Place","city":"Virginia Beach","state":"Virginia","zip":"23464"},
{"id":773,"street":"76776 Straubel Plaza","city":"Rochester","state":"New York","zip":"14652"},
{"id":774,"street":"6520 Tony Park","city":"Ann Arbor","state":"Michigan","zip":"48107"},
{"id":775,"street":"011 Stoughton Trail","city":"Anniston","state":"Alabama","zip":"36205"},
{"id":776,"street":"3 Bultman Court","city":"Honolulu","state":"Hawaii","zip":"96835"},
{"id":777,"street":"77 Everett Alley","city":"Port Saint Lucie","state":"Florida","zip":"34985"},
{"id":778,"street":"8 Hagan Lane","city":"Fort Lauderdale","state":"Florida","zip":"33330"},
{"id":779,"street":"9455 Homewood Junction","city":"New Brunswick","state":"New Jersey","zip":"08922"},
{"id":780,"street":"7 Brickson Park Park","city":"Fort Worth","state":"Texas","zip":"76178"},
{"id":781,"street":"095 Duke Junction","city":"Sioux Falls","state":"South Dakota","zip":"57198"},
{"id":782,"street":"551 Carey Drive","city":"Duluth","state":"Minnesota","zip":"55805"},
{"id":783,"street":"3927 West Plaza","city":"Louisville","state":"Kentucky","zip":"40298"},
{"id":784,"street":"95181 Pennsylvania Center","city":"Oklahoma City","state":"Oklahoma","zip":"73173"},
{"id":785,"street":"2 Corry Street","city":"Colorado Springs","state":"Colorado","zip":"80940"},
{"id":786,"street":"54371 Dixon Point","city":"Oklahoma City","state":"Oklahoma","zip":"73197"},
{"id":787,"street":"46 Artisan Terrace","city":"Washington","state":"District of Columbia","zip":"20575"},
{"id":788,"street":"200 Schurz Lane","city":"Cincinnati","state":"Ohio","zip":"45249"},
{"id":789,"street":"33 6th Court","city":"Clearwater","state":"Florida","zip":"34620"},
{"id":790,"street":"12612 Daystar Place","city":"Lubbock","state":"Texas","zip":"79491"},
{"id":791,"street":"0779 Artisan Place","city":"Pittsburgh","state":"Pennsylvania","zip":"15230"},
{"id":792,"street":"0566 Trailsway Alley","city":"Jackson","state":"Mississippi","zip":"39282"},
{"id":793,"street":"0 Gerald Lane","city":"Scranton","state":"Pennsylvania","zip":"18514"},
{"id":794,"street":"4421 Mayer Drive","city":"Fort Lauderdale","state":"Florida","zip":"33315"},
{"id":795,"street":"284 Calypso Pass","city":"Saint Louis","state":"Missouri","zip":"63121"},
{"id":796,"street":"7843 Cascade Alley","city":"Spokane","state":"Washington","zip":"99260"},
{"id":797,"street":"68973 Crowley Lane","city":"Lansing","state":"Michigan","zip":"48912"},
{"id":798,"street":"6 Autumn Leaf Alley","city":"Inglewood","state":"California","zip":"90398"},
{"id":799,"street":"7903 Reinke Drive","city":"Los Angeles","state":"California","zip":"90030"},
{"id":800,"street":"300 Lakewood Gardens Way","city":"San Francisco","state":"California","zip":"94121"},
{"id":801,"street":"55867 Evergreen Way","city":"Sacramento","state":"California","zip":"95813"},
{"id":802,"street":"306 Fair Oaks Avenue","city":"Allentown","state":"Pennsylvania","zip":"18105"},
{"id":803,"street":"84 1st Plaza","city":"Washington","state":"District of Columbia","zip":"20580"},
{"id":804,"street":"7015 Hooker Center","city":"Atlanta","state":"Georgia","zip":"30316"},
{"id":805,"street":"8 Amoth Crossing","city":"Spartanburg","state":"South Carolina","zip":"29319"},
{"id":806,"street":"527 Merrick Trail","city":"Reno","state":"Nevada","zip":"89595"},
{"id":807,"street":"5 Service Circle","city":"Atlanta","state":"Georgia","zip":"30340"},
{"id":808,"street":"769 Prentice Way","city":"Beaverton","state":"Oregon","zip":"97075"},
{"id":809,"street":"99714 Prairie Rose Terrace","city":"Riverside","state":"California","zip":"92513"},
{"id":810,"street":"6171 Brown Crossing","city":"Austin","state":"Texas","zip":"78764"},
{"id":811,"street":"17104 Nancy Drive","city":"Alexandria","state":"Virginia","zip":"22309"},
{"id":812,"street":"800 Bonner Way","city":"Shreveport","state":"Louisiana","zip":"71130"},
{"id":813,"street":"9631 Northfield Trail","city":"Morgantown","state":"West Virginia","zip":"26505"},
{"id":814,"street":"027 Annamark Drive","city":"Las Vegas","state":"Nevada","zip":"89140"},
{"id":815,"street":"5 Harper Crossing","city":"Richmond","state":"Virginia","zip":"23220"},
{"id":816,"street":"5928 Steensland Point","city":"Santa Barbara","state":"California","zip":"93111"},
{"id":817,"street":"3407 Hansons Terrace","city":"Evansville","state":"Indiana","zip":"47725"},
{"id":818,"street":"35 North Crossing","city":"Sarasota","state":"Florida","zip":"34233"},
{"id":819,"street":"87852 Cardinal Plaza","city":"Milwaukee","state":"Wisconsin","zip":"53285"},
{"id":820,"street":"9 Bunker Hill Parkway","city":"New York City","state":"New York","zip":"10203"},
{"id":821,"street":"5 Blackbird Center","city":"Baton Rouge","state":"Louisiana","zip":"70820"},
{"id":822,"street":"04 Maple Way","city":"El Paso","state":"Texas","zip":"88579"},
{"id":823,"street":"476 Burrows Way","city":"Colorado Springs","state":"Colorado","zip":"80905"},
{"id":824,"street":"0942 Lunder Park","city":"Chicago","state":"Illinois","zip":"60686"},
{"id":825,"street":"5 Surrey Pass","city":"Norfolk","state":"Virginia","zip":"23514"},
{"id":826,"street":"9 Susan Avenue","city":"Dayton","state":"Ohio","zip":"45408"},
{"id":827,"street":"81048 Calypso Avenue","city":"Jacksonville","state":"Florida","zip":"32259"},
{"id":828,"street":"86770 Sauthoff Plaza","city":"Omaha","state":"Nebraska","zip":"68197"},
{"id":829,"street":"51 Spaight Place","city":"Fort Wayne","state":"Indiana","zip":"46805"},
{"id":830,"street":"437 Lakewood Gardens Drive","city":"Atlanta","state":"Georgia","zip":"30368"},
{"id":831,"street":"4 David Alley","city":"Houston","state":"Texas","zip":"77070"},
{"id":832,"street":"27 Milwaukee Alley","city":"Colorado Springs","state":"Colorado","zip":"80920"},
{"id":833,"street":"23061 Colorado Parkway","city":"Pensacola","state":"Florida","zip":"32526"},
{"id":834,"street":"5063 Thompson Center","city":"Sacramento","state":"California","zip":"95894"},
{"id":835,"street":"20 Wayridge Drive","city":"Jeffersonville","state":"Indiana","zip":"47134"},
{"id":836,"street":"776 Lighthouse Bay Court","city":"Atlanta","state":"Georgia","zip":"30306"},
{"id":837,"street":"37946 Kedzie Alley","city":"Saint Louis","state":"Missouri","zip":"63158"},
{"id":838,"street":"1527 Calypso Parkway","city":"Seattle","state":"Washington","zip":"98115"},
{"id":839,"street":"5684 Alpine Plaza","city":"Charlotte","state":"North Carolina","zip":"28235"},
{"id":840,"street":"834 Buena Vista Parkway","city":"Tempe","state":"Arizona","zip":"85284"},
{"id":841,"street":"01 Loomis Drive","city":"Hot Springs National Park","state":"Arkansas","zip":"71914"},
{"id":842,"street":"56 Arrowood Street","city":"Pompano Beach","state":"Florida","zip":"33069"},
{"id":843,"street":"29 Gulseth Alley","city":"Fresno","state":"California","zip":"93773"},
{"id":844,"street":"09998 Forest Run Court","city":"Indianapolis","state":"Indiana","zip":"46221"},
{"id":845,"street":"62658 Dayton Alley","city":"Boca Raton","state":"Florida","zip":"33487"},
{"id":846,"street":"1657 Tennessee Court","city":"Lubbock","state":"Texas","zip":"79452"},
{"id":847,"street":"009 5th Park","city":"Salt Lake City","state":"Utah","zip":"84110"},
{"id":848,"street":"0084 Dunning Trail","city":"Odessa","state":"Texas","zip":"79769"},
{"id":849,"street":"0250 Stone Corner Plaza","city":"El Paso","state":"Texas","zip":"79945"},
{"id":850,"street":"134 Sunfield Court","city":"Madison","state":"Wisconsin","zip":"53785"},
{"id":851,"street":"4622 Muir Road","city":"Akron","state":"Ohio","zip":"44305"},
{"id":852,"street":"4154 Packers Pass","city":"Irvine","state":"California","zip":"92710"},
{"id":853,"street":"46 Bellgrove Terrace","city":"Monticello","state":"Minnesota","zip":"55585"},
{"id":854,"street":"260 Esch Crossing","city":"Miami","state":"Florida","zip":"33134"},
{"id":855,"street":"58 Grover Avenue","city":"New York City","state":"New York","zip":"10009"},
{"id":856,"street":"92 Rockefeller Court","city":"Salt Lake City","state":"Utah","zip":"84145"},
{"id":857,"street":"6373 Morrow Crossing","city":"Berkeley","state":"California","zip":"94705"},
{"id":858,"street":"902 Little Fleur Junction","city":"Washington","state":"District of Columbia","zip":"20599"},
{"id":859,"street":"78 Dapin Avenue","city":"Louisville","state":"Kentucky","zip":"40266"},
{"id":860,"street":"6 Continental Place","city":"New York City","state":"New York","zip":"10175"},
{"id":861,"street":"24 Stoughton Place","city":"Santa Fe","state":"New Mexico","zip":"87592"},
{"id":862,"street":"817 Dayton Street","city":"Minneapolis","state":"Minnesota","zip":"55402"},
{"id":863,"street":"91 Autumn Leaf Terrace","city":"Bloomington","state":"Indiana","zip":"47405"},
{"id":864,"street":"0961 Maple Circle","city":"Roanoke","state":"Virginia","zip":"24004"},
{"id":865,"street":"727 Red Cloud Junction","city":"Marietta","state":"Georgia","zip":"30061"},
{"id":866,"street":"02 Manufacturers Road","city":"Tucson","state":"Arizona","zip":"85737"},
{"id":867,"street":"682 Magdeline Trail","city":"Baltimore","state":"Maryland","zip":"21211"},
{"id":868,"street":"66 Kim Way","city":"Cleveland","state":"Ohio","zip":"44191"},
{"id":869,"street":"1936 Weeping Birch Crossing","city":"Washington","state":"District of Columbia","zip":"20205"},
{"id":870,"street":"804 Old Shore Crossing","city":"Honolulu","state":"Hawaii","zip":"96820"},
{"id":871,"street":"279 Spenser Road","city":"North Little Rock","state":"Arkansas","zip":"72118"},
{"id":872,"street":"840 Golf Park","city":"Temple","state":"Texas","zip":"76505"},
{"id":873,"street":"072 Warner Terrace","city":"Austin","state":"Texas","zip":"78754"},
{"id":874,"street":"4020 Marquette Drive","city":"Burbank","state":"California","zip":"91520"},
{"id":875,"street":"35 Victoria Park","city":"Huntsville","state":"Alabama","zip":"35810"},
{"id":876,"street":"79 Dahle Parkway","city":"Waco","state":"Texas","zip":"76796"},
{"id":877,"street":"69526 Eliot Court","city":"Amarillo","state":"Texas","zip":"79171"},
{"id":878,"street":"54 4th Street","city":"Waterloo","state":"Iowa","zip":"50706"},
{"id":879,"street":"7 Coolidge Crossing","city":"Kansas City","state":"Missouri","zip":"64193"},
{"id":880,"street":"9114 Sutherland Way","city":"Pompano Beach","state":"Florida","zip":"33069"},
{"id":881,"street":"1 4th Park","city":"Provo","state":"Utah","zip":"84605"},
{"id":882,"street":"936 Goodland Parkway","city":"Houston","state":"Texas","zip":"77299"},
{"id":883,"street":"80257 Texas Junction","city":"Phoenix","state":"Arizona","zip":"85099"},
{"id":884,"street":"32849 Mockingbird Avenue","city":"Corona","state":"California","zip":"92878"},
{"id":885,"street":"6 Sunfield Avenue","city":"El Paso","state":"Texas","zip":"88546"},
{"id":886,"street":"154 Dapin Court","city":"Jacksonville","state":"Florida","zip":"32236"},
{"id":887,"street":"852 Clyde Gallagher Circle","city":"Houston","state":"Texas","zip":"77240"},
{"id":888,"street":"1 Jay Park","city":"Washington","state":"District of Columbia","zip":"20041"},
{"id":889,"street":"21 Stuart Road","city":"Arlington","state":"Texas","zip":"76096"},
{"id":890,"street":"91 Kropf Lane","city":"San Diego","state":"California","zip":"92137"},
{"id":891,"street":"27197 North Point","city":"Topeka","state":"Kansas","zip":"66622"},
{"id":892,"street":"528 Ronald Regan Crossing","city":"Lafayette","state":"Louisiana","zip":"70593"},
{"id":893,"street":"61492 Talisman Point","city":"Iowa City","state":"Iowa","zip":"52245"},
{"id":894,"street":"23 Hudson Terrace","city":"Rochester","state":"New York","zip":"14683"},
{"id":895,"street":"282 Hovde Crossing","city":"Salt Lake City","state":"Utah","zip":"84110"},
{"id":896,"street":"45 Dixon Drive","city":"Anaheim","state":"California","zip":"92825"},
{"id":897,"street":"5446 Butterfield Pass","city":"Akron","state":"Ohio","zip":"44315"},
{"id":898,"street":"9 Northfield Parkway","city":"Fort Lauderdale","state":"Florida","zip":"33330"},
{"id":899,"street":"305 Service Court","city":"Seattle","state":"Washington","zip":"98140"},
{"id":900,"street":"2 Truax Way","city":"Denver","state":"Colorado","zip":"80262"},
{"id":901,"street":"95832 Rigney Court","city":"Philadelphia","state":"Pennsylvania","zip":"19109"},
{"id":902,"street":"4028 Emmet Place","city":"Huntsville","state":"Alabama","zip":"35805"},
{"id":903,"street":"5 Swallow Point","city":"Crawfordsville","state":"Indiana","zip":"47937"},
{"id":904,"street":"185 Elmside Terrace","city":"Louisville","state":"Kentucky","zip":"40210"},
{"id":905,"street":"681 Shasta Terrace","city":"Seattle","state":"Washington","zip":"98140"},
{"id":906,"street":"97 Northridge Crossing","city":"Nashville","state":"Tennessee","zip":"37205"},
{"id":907,"street":"2513 Shoshone Circle","city":"Canton","state":"Ohio","zip":"44710"},
{"id":908,"street":"18 Jackson Road","city":"Harrisburg","state":"Pennsylvania","zip":"17140"},
{"id":909,"street":"0334 Pleasure Terrace","city":"Washington","state":"District of Columbia","zip":"20392"},
{"id":910,"street":"4451 Maple Drive","city":"Buffalo","state":"New York","zip":"14215"},
{"id":911,"street":"03219 Lukken Road","city":"Rockford","state":"Illinois","zip":"61105"},
{"id":912,"street":"1617 New Castle Road","city":"Washington","state":"District of Columbia","zip":"20392"},
{"id":913,"street":"88595 Eggendart Avenue","city":"Rockville","state":"Maryland","zip":"20851"},
{"id":914,"street":"6416 Spenser Place","city":"Sioux Falls","state":"South Dakota","zip":"57198"},
{"id":915,"street":"4 Brickson Park Terrace","city":"Charlotte","state":"North Carolina","zip":"28242"},
{"id":916,"street":"73734 Reindahl Parkway","city":"San Francisco","state":"California","zip":"94164"},
{"id":917,"street":"469 Golf View Junction","city":"Baton Rouge","state":"Louisiana","zip":"70810"},
{"id":918,"street":"913 Dayton Way","city":"Salt Lake City","state":"Utah","zip":"84130"},
{"id":919,"street":"98404 Arrowood Circle","city":"Washington","state":"District of Columbia","zip":"20530"},
{"id":920,"street":"21 Glacier Hill Way","city":"Des Moines","state":"Iowa","zip":"50330"},
{"id":921,"street":"29414 Ridgeview Street","city":"Erie","state":"Pennsylvania","zip":"16510"},
{"id":922,"street":"120 Pankratz Court","city":"Seattle","state":"Washington","zip":"98166"},
{"id":923,"street":"936 Merry Point","city":"Lansing","state":"Michigan","zip":"48930"},
{"id":924,"street":"3 Cottonwood Lane","city":"Portland","state":"Oregon","zip":"97286"},
{"id":925,"street":"45 Eagle Crest Crossing","city":"Jamaica","state":"New York","zip":"11436"},
{"id":926,"street":"58380 Mariners Cove Way","city":"Washington","state":"District of Columbia","zip":"20557"},
{"id":927,"street":"0879 Bellgrove Road","city":"Indianapolis","state":"Indiana","zip":"46202"},
{"id":928,"street":"656 Stuart Junction","city":"Fort Pierce","state":"Florida","zip":"34981"},
{"id":929,"street":"4045 Bluestem Parkway","city":"Birmingham","state":"Alabama","zip":"35285"},
{"id":930,"street":"02 Melvin Lane","city":"Gulfport","state":"Mississippi","zip":"39505"},
{"id":931,"street":"0 Scofield Way","city":"Utica","state":"New York","zip":"13505"},
{"id":932,"street":"085 Raven Court","city":"El Paso","state":"Texas","zip":"79994"},
{"id":933,"street":"90949 La Follette Crossing","city":"Pittsburgh","state":"Pennsylvania","zip":"15266"},
{"id":934,"street":"91 Continental Place","city":"Dallas","state":"Texas","zip":"75231"},
{"id":935,"street":"7602 Dapin Hill","city":"New Orleans","state":"Louisiana","zip":"70183"},
{"id":936,"street":"040 Anderson Avenue","city":"Houston","state":"Texas","zip":"77025"},
{"id":937,"street":"62694 David Plaza","city":"Washington","state":"District of Columbia","zip":"20051"},
{"id":938,"street":"6 Clemons Plaza","city":"Peoria","state":"Illinois","zip":"61656"},
{"id":939,"street":"50 Roth Lane","city":"Cleveland","state":"Ohio","zip":"44118"},
{"id":940,"street":"321 Springs Drive","city":"Tallahassee","state":"Florida","zip":"32309"},
{"id":941,"street":"8 Sullivan Junction","city":"Corona","state":"California","zip":"92878"},
{"id":942,"street":"0 Lien Crossing","city":"Des Moines","state":"Iowa","zip":"50315"},
{"id":943,"street":"83 Straubel Crossing","city":"Harrisburg","state":"Pennsylvania","zip":"17105"},
{"id":944,"street":"05 Holmberg Trail","city":"San Antonio","state":"Texas","zip":"78210"},
{"id":945,"street":"48 Reinke Point","city":"Indianapolis","state":"Indiana","zip":"46278"},
{"id":946,"street":"12 Glacier Hill Place","city":"Washington","state":"District of Columbia","zip":"20392"},
{"id":947,"street":"39076 Schmedeman Terrace","city":"Fayetteville","state":"North Carolina","zip":"28314"},
{"id":948,"street":"8 Cambridge Terrace","city":"Shawnee Mission","state":"Kansas","zip":"66225"},
{"id":949,"street":"6 Kim Trail","city":"Greensboro","state":"North Carolina","zip":"27499"},
{"id":950,"street":"222 Continental Pass","city":"El Paso","state":"Texas","zip":"88541"},
{"id":951,"street":"09 Brentwood Road","city":"Long Beach","state":"California","zip":"90840"},
{"id":952,"street":"2655 Debra Park","city":"Idaho Falls","state":"Idaho","zip":"83405"},
{"id":953,"street":"43057 Shopko Circle","city":"Los Angeles","state":"California","zip":"90076"},
{"id":954,"street":"064 Calypso Trail","city":"Clearwater","state":"Florida","zip":"34615"},
{"id":955,"street":"60 Commercial Hill","city":"San Diego","state":"California","zip":"92105"},
{"id":956,"street":"29493 Bowman Trail","city":"Terre Haute","state":"Indiana","zip":"47805"},
{"id":957,"street":"928 2nd Trail","city":"Panama City","state":"Florida","zip":"32405"},
{"id":958,"street":"0 Orin Center","city":"Clearwater","state":"Florida","zip":"34629"},
{"id":959,"street":"82649 Bobwhite Crossing","city":"Washington","state":"District of Columbia","zip":"20591"},
{"id":960,"street":"348 Susan Road","city":"Portland","state":"Oregon","zip":"97296"},
{"id":961,"street":"3 Forest Road","city":"Charlotte","state":"North Carolina","zip":"28230"},
{"id":962,"street":"23686 Bluejay Pass","city":"Boise","state":"Idaho","zip":"83705"},
{"id":963,"street":"9717 Charing Cross Court","city":"Flushing","state":"New York","zip":"11355"},
{"id":964,"street":"12562 Sherman Place","city":"Kansas City","state":"Missouri","zip":"64153"},
{"id":965,"street":"94830 Cordelia Park","city":"Cambridge","state":"Massachusetts","zip":"02142"},
{"id":966,"street":"61 Packers Lane","city":"Cincinnati","state":"Ohio","zip":"45254"},
{"id":967,"street":"4702 Melrose Junction","city":"Colorado Springs","state":"Colorado","zip":"80915"},
{"id":968,"street":"50378 Bonner Lane","city":"Largo","state":"Florida","zip":"33777"},
{"id":969,"street":"25 Stephen Circle","city":"Greenville","state":"South Carolina","zip":"29615"},
{"id":970,"street":"393 Shopko Terrace","city":"Garland","state":"Texas","zip":"75049"},
{"id":971,"street":"6614 Macpherson Center","city":"Newark","state":"Delaware","zip":"19714"},
{"id":972,"street":"439 Jenna Crossing","city":"Gary","state":"Indiana","zip":"46406"},
{"id":973,"street":"0 Summer Ridge Pass","city":"New York City","state":"New York","zip":"10004"},
{"id":974,"street":"754 Westport Road","city":"Aiken","state":"South Carolina","zip":"29805"},
{"id":975,"street":"13603 Eggendart Trail","city":"Fargo","state":"North Dakota","zip":"58106"},
{"id":976,"street":"91 Scoville Plaza","city":"Washington","state":"District of Columbia","zip":"20591"},
{"id":977,"street":"51 Bartelt Alley","city":"Macon","state":"Georgia","zip":"31210"},
{"id":978,"street":"01039 Comanche Place","city":"Arlington","state":"Virginia","zip":"22205"},
{"id":979,"street":"50661 Steensland Place","city":"Oklahoma City","state":"Oklahoma","zip":"73190"},
{"id":980,"street":"14417 Cascade Trail","city":"Peoria","state":"Arizona","zip":"85383"},
{"id":981,"street":"45 Hansons Park","city":"Pasadena","state":"California","zip":"91199"},
{"id":982,"street":"1833 Hudson Hill","city":"Nashville","state":"Tennessee","zip":"37245"},
{"id":983,"street":"9 Summit Junction","city":"Miami","state":"Florida","zip":"33196"},
{"id":984,"street":"5069 Reinke Crossing","city":"Arlington","state":"Virginia","zip":"22244"},
{"id":985,"street":"202 Montana Parkway","city":"Houston","state":"Texas","zip":"77212"},
{"id":986,"street":"7547 Butterfield Plaza","city":"Lansing","state":"Michigan","zip":"48912"},
{"id":987,"street":"0008 Southridge Center","city":"Tallahassee","state":"Florida","zip":"32399"},
{"id":988,"street":"61197 Lerdahl Court","city":"Seminole","state":"Florida","zip":"34642"},
{"id":989,"street":"936 Old Shore Lane","city":"Shawnee Mission","state":"Kansas","zip":"66220"},
{"id":990,"street":"24395 Fuller Plaza","city":"Denver","state":"Colorado","zip":"80255"},
{"id":991,"street":"5575 Mayer Avenue","city":"Corpus Christi","state":"Texas","zip":"78410"},
{"id":992,"street":"0 Rigney Point","city":"Pittsburgh","state":"Pennsylvania","zip":"15215"},
{"id":993,"street":"60165 Bultman Hill","city":"Muskegon","state":"Michigan","zip":"49444"},
{"id":994,"street":"27 Marquette Alley","city":"Washington","state":"District of Columbia","zip":"20392"},
{"id":995,"street":"26 Monument Plaza","city":"Portland","state":"Oregon","zip":"97232"},
{"id":996,"street":"57051 Shopko Crossing","city":"Colorado Springs","state":"Colorado","zip":"80930"},
{"id":997,"street":"0804 Dwight Trail","city":"Dallas","state":"Texas","zip":"75392"},
{"id":998,"street":"9 Village Point","city":"Omaha","state":"Nebraska","zip":"68124"},
{"id":999,"street":"9 Southridge Circle","city":"Trenton","state":"New Jersey","zip":"08619"},
{"id":1000,"street":"5168 Barnett Park","city":"Madison","state":"Wisconsin","zip":"53790"}]